host name,Address,Postal code,City,Email address,phone number
Gemeente Aa en Hunze,Postbus 93,9460 AB,GIETEN,aa@straat.info,14 0592
Gemeente Aalburg,Postbus 40,4260 AA,WIJK EN AALBURG,aalburg@straat.info,(0416) 69 87 00
Gemeente Aalsmeer,Postbus 253,1430 AG,AALSMEER,aalsmeer@straat.info,(0297) 38 75 75
Gemeente Aalten,Postbus 119,7120 AC,AALTEN,aalten@straat.info,(0543) 49 33 33
Gemeente Achtkarspelen,Postbus 2,9285 ZV,BUITENPOST,achtkarspelen@straat.info,14 0511
Gemeente Alblasserdam,Postbus 2,2950 AA,ALBLASSERDAM,alblasserdam@straat.info,14 078
Gemeente Albrandswaard,Postbus 1000,3160 GA,RHOON,albrandswaard@straat.info,(010) 506 11 11
Gemeente Alkmaar,Postbus 53,1800 BC,ALKMAAR,alkmaar@straat.info,14072
Gemeente Almelo,Postbus 5100,7600 GC,ALMELO,almelo@straat.info,(0546) 54 11 11
Gemeente Almere,Postbus 200,1300 AE,ALMERE,almere@straat.info,14 036
Gemeente Alphen aan den Rijn,Postbus 13,2400 AA,ALPHEN AAN DEN RIJN,alphenaandenrijn@straat.info,14 0172
Gemeente Alphen-Chaam,Postbus 3,5130 AA,ALPHEN NB,alphenchaam@straat.info,(013) 508 66 66
Gemeente Ameland,Postbus 22,9160 AA,HOLLUM,ameland@straat.info,(0519) 55 55 55
Gemeente Amersfoort,Postbus 4000,3800 EA,AMERSFOORT,amersfoort@straat.info,14 033
Gemeente Amstelveen,Postbus 4,1180 BA,AMSTELVEEN,amstelveen@straat.info,(020) 540 49 11
Gemeente Amsterdam,Postbus 202,1000 AE,AMSTERDAM,amsterdam@straat.info,14 020
Gemeente Apeldoorn,Postbus 9033,7300 ES,APELDOORN,apeldoorn@straat.info,14 055
Gemeente Appingedam,Postbus 15,9900 AA,APPINGEDAM,appingedam@straat.info,14 0596
Gemeente Arnhem,Postbus 9029,6800 EL,ARNHEM,arnhem@straat.info,0900 1809
Gemeente Assen,Postbus 30018,9400 RA,ASSEN,assen@straat.info,(0592) 36 69 11
Gemeente Asten,Postbus 290,5720 AG,ASTEN,asten@straat.info,(0493) 67 12 12
Gemeente Baarle-Nassau,Postbus 105,5110 AC,BAARLE-NASSAU,baarle@straat.info,(013) 507 52 00
Gemeente Baarn,Postbus 1003,3740 BA,BAARN,baarn@straat.info,(035) 548 16 11
Gemeente Barendrecht,Postbus 501,2990 EA,BARENDRECHT,barendrecht@straat.info,14 0180
Gemeente Barneveld,Postbus 63,3770 AB,BARNEVELD,barneveld@straat.info,14 0342
Gemeente Bedum,Postbus 38,9780 AA,BEDUM,bedum@straat.info,(050) 301 89 11
Gemeente Beek,Postbus 20,6190 AA,BEEK LB,beek@straat.info,(046) 438 92 22
Gemeente Beemster,Postbus 7,1462 ZG,MIDDENBEEMSTER,beemster@straat.info,(0299) 68 21 00
Gemeente Beesel,Postbus 4750,5953 ZK,REUVER,beesel@straat.info,(077) 474 92 92
Gemeente Bergeijk,Postbus 10000,5570 GA,BERGEIJK,bergeijk@straat.info,(0497) 55 14 55
Gemeente Bergen (L),Postbus 140,5854 ZJ,BERGEN LB,bergenLIMBURG@straat.info,(0485) 34 83 83
Gemeente Bergen NH,Postbus 175,1860 AD,BERGEN NH,bergenNOORDHOLLAND@straat.info,(072) 888 00 00
Gemeente Bergen op Zoom,Postbus 35,4600 AA,BERGEN OP ZOOM,bergenopzoom@straat.info,(0164) 27 70 00
Gemeente Berkelland,Postbus 200,7270 HA,BORCULO,berkelland@straat.info,(0545) 25 02 50
Gemeente Bernheze,Postbus 19,5384 ZG,HEESCH,bernheze@straat.info,(0412) 45 88 88
Gemeente Best,Postbus 50,5680 AB,BEST,best@straat.info,(0499) 36 09 11
Gemeente Beuningen,Postbus 14,6640 AA,BEUNINGEN GLD,beuningen@straat.info,14 024
Gemeente Beverwijk,Postbus 450,1940 AL,BEVERWIJK,beverwijk@straat.info,(0251) 25 62 56
Gemeente Binnenmaas,Postbus 5455,3299 ZH,MAASDAM,binnenmaas@straat.info,(078) 676 44 33
Gemeente Bladel,Postbus 11,5530 AA,BLADEL,bladel@straat.info,(0497) 36 16 36
Gemeente Blaricum,Postbus 71,3755 ZH,EEMNES,blaricum@straat.info,(035) 751 32 22
Gemeente Bloemendaal,Postbus 201,2050 AE,OVERVEEN,bloemendaal@straat.info,14 023
Gemeente Bodegraven-Reeuwijk,Postbus 401,2410 AK,BODEGRAVEN,bodegraven@straat.info,(0172) 52 25 22
Gemeente Boekel,Postbus 99,5427 ZH,BOEKEL,boekel@straat.info,(0492) 32 68 00
Gemeente Borger-Odoorn,Postbus 3,7875 ZG,EXLOO,borger@straat.info,14 0591
Gemeente Borne,Postbus 200,7620 AE,BORNE,borne@straat.info,(074) 265 86 86
Gemeente Borsele,Postbus 1,4450 AA,HEINKENSZAND,borsele@straat.info,(0113) 23 83 83
Gemeente Boxmeer,Postbus 450,5830 AL,BOXMEER,boxmeer@straat.info,(0485) 58 59 11
Gemeente Boxtel,Postbus 10000,5280 DA,BOXTEL,boxtel@straat.info,(0411) 65 59 11
Gemeente Breda,Postbus 90156,4800 RH,BREDA,breda@straat.info,14 076
Gemeente Brielle,Postbus 101,3230 AC,BRIELLE,brielle@straat.info,(0181) 47 11 11
Gemeente Bronckhorst,Postbus 200,7255 ZJ,HENGELO GLD,bronckhorst@straat.info,(0575) 75 02 50
Gemeente Brummen,Postbus 5,6970 AA,BRUMMEN,brummen@straat.info,(0575) 56 82 33
Gemeente Brunssum,Postbus 250,6440 AG,BRUNSSUM,brunssum@straat.info,(045) 527 85 55
Gemeente Bunnik,Postbus 5,3980 CA,BUNNIK,bunnik@straat.info,(030) 659 48 48
Gemeente Bunschoten,Postbus 200,3750 GE,BUNSCHOTEN-SPAKENBURG,bunschoten@straat.info,14033
Gemeente Buren,Postbus 23,4020 BA,MAURIK,buren@straat.info,14 0344
Gemeente Capelle aan den IJssel,Postbus 70,2900 AB,CAPELLE AAN DEN IJSSEL,capelle@straat.info,(010) 284 84 84
Gemeente Castricum,Postbus 1301,1900 BH,CASTRICUM,castricum@straat.info,(0251) 66 11 22
Gemeente Coevorden,Postbus 2,7740 AA,COEVORDEN,coevorden@straat.info,14 0524
Gemeente Cranendonck,Postbus 2090,6020 AB,BUDEL,cranendonck@straat.info,(0495) 43 12 22
Gemeente Cromstrijen,Postbus 7400,3280 AE,NUMANSDORP,cromstrijen@straat.info,(0186) 65 61 00
Gemeente Cuijk,Postbus 7,5360 AA,GRAVE,cuijk@straat.info,(0485) 39 66 00
Gemeente Culemborg,Postbus 136,4100 AC,CULEMBORG,culemborg@straat.info,(0345) 47 77 00
Gemeente Dalfsen,Postbus 35,7720 AA,DALFSEN,dalfsen@straat.info,(0529) 48 83 88
Gemeente Dantumadiel,Postbus 22,9104 ZG,DAMWALD,dantumadiel@straat.info,14+ 0511
Gemeente De Bilt,Postbus 300,3720 AH,BILTHOVEN,debilst@straat.info,(030) 228 94 11
Gemeente De Fryske Marren,Postbus 101,8500 AC,JOURE,Defryskemarren@straat.info,14 05 14
Gemeente De Marne,Postbus 11,9965 ZG,LEENS,demarne@straat.info,(0595) 57 55 00
Gemeente De Ronde Venen,Postbus 250,3640 AG,MIJDRECHT,derondevenen@straat.info,(0297) 29 16 16
Gemeente De Wolden,Postbus 20,7920 AA,ZUIDWOLDE DR,dewolden@straat.info,14 0528
Gemeente Delft,Postbus 78,2600 ME,DELFT,delft@straat.info,14015
Gemeente Delfzijl,Postbus 20000,9930 PA,DELFZIJL,delfzijl@straat.info,140596
Gemeente Den Haag,Postbus 12600,2500 DJ,'S-GRAVENHAGE,denhaag@straat.info,14070
Gemeente Den Helder,Postbus 36,1780 AA,DEN HELDER,denhelder@straat.info,(0223) 67 12 00
Gemeente Deurne,Postbus 3,5750 AA,DEURNE,deurne@straat.info,(0493) 38 77 11
Gemeente Deventer,Postbus 5000,7400 GC,DEVENTER,deventer@straat.info,14 0570
Gemeente Diemen,Postbus 191,1110 AD,DIEMEN,diemen@straat.info,(020) 314 48 88
Gemeente Dinkelland,Postbus 11,7590 AA,DENEKAMP,dinkelland@straat.info,(0541) 85 41 00
Gemeente Doesburg,Postbus 100,6980 AC,DOESBURG,doesburg@straat.info,(0313) 48 13 13
Gemeente Doetinchem,Postbus 9020,7000 HA,DOETINCHEM,doetinchem@straat.info,(0314) 37 73 77
Gemeente Dongen,Postbus 10153,5100 GE,DONGEN,dongen@straat.info,(0162) 38 32 00
Gemeente Dongeradeel,Postbus 1,9100 AA,DOKKUM,dongeradeel@straat.info,14 0519
Gemeente Dordrecht,Postbus 8,3300 AA,DORDRECHT,dordrecht@straat.info,14078
Gemeente Drechterland,Postbus 9,1616 ZG,HOOGKARSPEL,drechterland@straat.info,(0228) 35 23 52
Gemeente Drimmelen,Postbus 19,4920 AA,MADE,drimmelen@straat.info,(0162) 69 01 90
Gemeente Dronten,Postbus 100,8250 AC,DRONTEN,dronten@straat.info,140321
Gemeente Druten,Postbus 1,6650 AA,DRUTEN,druten@straat.info,14 0487
Gemeente Duiven,Postbus 6,6920 AA,DUIVEN,duiven@straat.info,(0316) 27 91 11
Gemeente Echt-Susteren,Postbus 450,6100 AL,ECHT,echt@straat.info,(0475) 47 84 78
Gemeente Edam-Volendam,Postbus 180,1130 AD,VOLENDAM,edam@straat.info,(0299) 39 83 98
Gemeente Ede,Postbus 9022,6710 HK,EDE GLD,ede@straat.info,14-0318
Gemeente Eemnes,Postbus 71,3755 ZH,EEMNES,eemnes@straat.info,14035
Gemeente Eemsmond,Postbus 11,9980 AA,UITHUIZEN,eemsmond@straat.info,(0595) 43 75 55
Gemeente Eersel,Postbus 12,5520 AA,EERSEL,eersel@straat.info,(0497) 53 13 00
Gemeente Eijsden-Margraten,Postbus 10,6269 ZG,MARGRATEN,eijsden@straat.info,(043) 458 84 88
Gemeente Eindhoven,Postbus 90150,5600 RB,EINDHOVEN,eindhoven@straat.info,14 040
Gemeente Elburg,Postbus 70,8080 AB,ELBURG,elburg@straat.info,(0525) 68 86 88
Gemeente Emmen,Postbus 30001,7800 RA,EMMEN,emmen@straat.info,14 0591
Gemeente Enkhuizen,Postbus 11,1600 AA,ENKHUIZEN,enkhuizen@straat.info,(0228) 36 01 00
Gemeente Enschede,Postbus 20,7500 AA,ENSCHEDE,enschede@straat.info,14053
Gemeente Epe,Postbus 600,8160 AP,EPE,epe@straat.info,14 0578
Gemeente Ermelo,Postbus 500,3850 AM,ERMELO,ermelo@straat.info,(0341) 56 73 21
Gemeente Etten-Leur,Postbus 10100,4870 GA,ETTEN-LEUR,etten@straat.info,14076
Gemeente Ferwerderadiel,Postbus 2,9172 ZS,FERWERT,ferwerderadiel@straat.info,(0518) 41 88 88
Gemeente Geertruidenberg,Postbus 10001,4940 GA,RAAMSDONKSVEER,geertruidenberg@straat.info,140162
Gemeente Geldermalsen,Postbus 112,4190 CC,GELDERMALSEN,geldermalsen@straat.info,(0345) 58 66 11
Gemeente Geldrop-Mierlo,Postbus 10101,5660 GA,GELDROP,geldrop@straat.info,14 040
Gemeente Gemert-Bakel,Postbus 10000,5420 DA,GEMERT,gemert@straat.info,(0492) 37 85 00
Gemeente Gennep,Postbus 9003,6590 HD,GENNEP,gennep@straat.info,(0485) 49 41 41
Gemeente Giessenlanden,Postbus 1,4223 ZG,HOORNAAR,giessenlanden@straat.info,(0183) 58 38 38
Gemeente Gilze en Rijen,Postbus 73,5120 AB,RIJEN,gilze@straat.info,14 0161
Gemeente Goeree-Overflakkee,Postbus 1,3240 AA,MIDDELHARNIS,goeree@straat.info,14 0187
Gemeente Goes,Postbus 2118,4460 MC,GOES,goes@straat.info,(0113) 24 96 00
Gemeente Goirle,Postbus 17,5050 AA,GOIRLE,goirle@straat.info,(013) 531 06 10
Gemeente Gooise Meren,Postbus 6000,1400 HA,Bussum,gooise@straat.info,(035) 207 00 00
Gemeente Gorinchem,Postbus 108,4200 AC,GORINCHEM,gorinchem@straat.info,(0183) 65 95 95
Gemeente Gouda,Postbus 1086,2800 BB,GOUDA,gouda@straat.info,14 0182
Gemeente Grave,Postbus 7,5360 AA,GRAVE,grave@straat.info,(0486) 47 72 77
Gemeente Groesbeek,Postbus 20,6560 AA,GROESBEEK,groesbeek@straat.info,14024
Gemeente Groningen,Postbus 20001,9700 PB,GRONINGEN,groningen@straat.info,(050) 367 91 11
Gemeente Grootegast,Postbus 46,9860 AA,GROOTEGAST,grootegast@straat.info,14-0594
Gemeente Gulpen-Wittem,Postbus 56,6270 AB,GULPEN,gulpen@straat.info,(043) 880 06 00
Gemeente Haaksbergen,Postbus 102,7480 AC,HAAKSBERGEN,haaksbergen@straat.info,(053) 573 45 67
Gemeente Haaren,Postbus 44,5076 ZG,HAAREN,haaren@straat.info,(0411) 62 72 82
Gemeente Haarlem,Postbus 511,2003 PB,HAARLEM,haarlem@straat.info,14023
Gemeente Haarlemmerliede en Spaarnwoude,Postbus 83,1160 AB,ZWANENBURG,haarlemmerliede@straat.info,(020) 407 90 00
Gemeente Haarlemmermeer,Postbus 250,2130 AG,HOOFDDORP,haarlemmermeer@straat.info,0900 1852
Gemeente Halderberge,Postbus 5,4730 AA,OUDENBOSCH,halderberge@straat.info,(0165) 39 05 00
Gemeente Hardenberg,Postbus 500,7770 BA,HARDENBERG,hardenberg@straat.info,14 0523
Gemeente Harderwijk,Postbus 149,3840 AC,HARDERWIJK,harderwijk@straat.info,(0341) 41 19 11
Gemeente Hardinxveld-Giessendam,Postbus 175,3370 AD,HARDINXVELD-GIESSENDAM,hardinxveld@straat.info,14 0184
Gemeente Haren,Postbus 21,9750 AA,HAREN GN,haren@straat.info,14050
Gemeente Harlingen,Postbus 10000,8860 HA,HARLINGEN,harlingen@straat.info,(0517) 49 22 22
Gemeente Hattem,Postbus 93,8050 AB,HATTEM,hattem@straat.info,(038) 443 16 16
Gemeente Heemskerk,Postbus 1,1960 AA,HEEMSKERK,heemskerk@straat.info,14 0251
Gemeente Heemstede,Postbus 352,2100 AJ,HEEMSTEDE,heemstede@straat.info,14 023
Gemeente Heerde,Postbus 175,8180 AD,HEERDE,heerde@straat.info,(0578) 69 94 94
Gemeente Heerenveen,Postbus 15000,8440 GA,HEERENVEEN,heerenveen@straat.info,(0513) 61 76 17
Gemeente Heerhugowaard,Postbus 390,1700 AJ,HEERHUGOWAARD,heerhugowaard@straat.info,14 072
Gemeente Heerlen,Postbus 1,6400 AA,HEERLEN,heerlen@straat.info,14 045
Gemeente Heeze-Leende,Postbus 10000,5590 GA,HEEZE,heeze@straat.info,(040) 224 14 00
Gemeente Heiloo,Postbus 1,1850 AA,HEILOO,heiloo@straat.info,(072) 535 66 66
Gemeente Hellendoorn,Postbus 200,7440 AE,NIJVERDAL,hellendoorn@straat.info,(0548) 63 00 00
Gemeente Hellevoetsluis,Postbus 13,3220 AA,HELLEVOETSLUIS,hellevoetsluis@straat.info,14 0181
Gemeente Helmond,Postbus 950,5700 AZ,HELMOND,helmond@straat.info,140492
Gemeente Hendrik-Ido-Ambacht,Postbus 34,3340 AA,HENDRIK-IDO-AMBACHT,hendrik@straat.info,14078
Gemeente Hengelo Ov.,Postbus 18,7550 AA,HENGELO OV,hengelo@straat.info,(074) 245 98 76
Gemeente Heumen,Postbus 200,6580 AZ,MALDEN,heumen@straat.info,14 024
Gemeente Heusden,Postbus 41,5250 AA,VLIJMEN,heusden@straat.info,14 073
Gemeente Hillegom,Postbus 32,2180 AA,HILLEGOM,hillegom@straat.info,14 0252
Gemeente Hilvarenbeek,Postbus 3,5080 AA,HILVARENBEEK,hilvarenbeek@straat.info,(013) 505 83 83
Gemeente Hilversum,Postbus 9900,1201 GM,HILVERSUM,hilversum@straat.info,14035
Gemeente Hof van Twente,Postbus 54,7470 AB,GOOR,hof@straat.info,(0547) 85 85 85
Gemeente Hollands Kroon,Postbus 8,1760 AA,ANNA PAULOWNA,hollands@straat.info,(088) 321 50 00
Gemeente Hoogeveen,Postbus 20000,7900 PA,HOOGEVEEN,hoogeveen@straat.info,14 0528
Gemeente Hoorn,Postbus 603,1620 AR,HOORN NH,hoorn@straat.info,(0229) 25 22 00
Gemeente Horst aan de Maas,Postbus 6005,5960 AA,HORST,horst@straat.info,(077) 477 97 77
Gemeente Houten,Postbus 30,3990 DA,HOUTEN,houten@straat.info,(030) 639 26 11
Gemeente Huizen,Postbus 5,1270 AA,HUIZEN,huizen@straat.info,(035) 528 19 11
Gemeente Hulst,Postbus 49,4560 AA,HULST,hulst@straat.info,14 0114
Gemeente IJsselstein,Postbus 26,3400 AA,IJSSELSTEIN UT,ijsselstein@straat.info,14 030
Gemeente Kaag en Braassem,Postbus 1,2370 AA,ROELOFARENDSVEEN,kaag@straat.info,(071) 332 72 72
Gemeente Kampen,Postbus 5009,8260 GA,KAMPEN,kampen@straat.info,(038) 339 29 99
Gemeente Kapelle,Postbus 79,4420 AC,KAPELLE,kapelle@straat.info,(0113) 33 31 10
Gemeente Katwijk,Postbus 589,2220 AN,KATWIJK ZH,katwijk@straat.info,(071) 406 50 00
Gemeente Kerkrade,Postbus 600,6460 AP,KERKRADE,kerkrade@straat.info,14 045
Gemeente Koggenland,Postbus 21,1633 ZG,AVENHORN,koggenland@straat.info,(0229) 54 84 00
Gemeente Kollumerland c.a.,Postbus 13,9290 AA,KOLLUM,kollumerland@straat.info,(0511) 45 88 88
Gemeente Korendijk,Postbus 3708,3265 ZG,PIERSHIL,korendijk@straat.info,(0186) 69 77 77
Gemeente Krimpen aan den IJssel,Postbus 200,2920 AE,KRIMPEN AAN DEN IJSSEL,krimpen@straat.info,14 0180
Gemeente Krimpenerwaard,Postbus 51,2820 AB,STOLWIJK,krimpenerwaard@straat.info,140182
Gemeente Laarbeek,Postbus 190,5740 AD,BEEK EN DONK,laarbeek@straat.info,(0492) 46 97 00
Gemeente Landerd,Postbus 35,5410 AA,ZEELAND,landerd@straat.info,(0486) 45 81 11
Gemeente Landgraaf,Postbus 31000,6370 AA,LANDGRAAF,landgraaf@straat.info,14 045
Gemeente Landsmeer,Postbus 1,1120 AA,LANDSMEER,landsmeer@straat.info,(020) 487 71 11
Gemeente Langedijk,Postbus 15,1723 ZG,NOORD-SCHARWOUDE,langedijk@straat.info,(0226) 33 44 33
Gemeente Lansingerland,Postbus 1,2650 AA,BERKEL EN RODENRIJS,lansingerland@straat.info,14 010
Gemeente Laren,Postbus 71,3755 ZH,EEMNES,laren@straat.info,(035) 751 34 44
Gemeente Leek,Postbus 100,9350 AC,LEEK,leek@straat.info,(0594) 55 15 15
Gemeente Leerdam,Postbus 15,4140 AA,LEERDAM,leerdam@straat.info,(0345) 63 63 63
Gemeente Leeuwarden,Postbus 21000,8900 JA,LEEUWARDEN,leeuwarden@straat.info,14 058
Gemeente Leiden,Postbus 9100,2300 PC,LEIDEN,leiden@straat.info,14071
Gemeente Leiderdorp,Postbus 35,2350 AA,LEIDERDORP,leiderdorp@straat.info,(071) 545 85 00
Gemeente Leidschendam-Voorburg,Postbus 1005,2260 BA,LEIDSCHENDAM,leidschendam@straat.info,14070
Gemeente Lelystad,Postbus 91,8200 AB,LELYSTAD,lelystad@straat.info,14 03 20
Gemeente Leudal,Postbus 3008,6093 ZG,HEYTHUYSEN,leudal@straat.info,(0475) 85 90 00
Gemeente Leusden,Postbus 150,3830 AD,LEUSDEN,leusden@straat.info,14 033
Gemeente Lingewaal,Postbus 1014,4147 ZG,ASPEREN,lingewaal@straat.info,(0345) 63 40 00
Gemeente Lingewaard,Postbus 15,6680 AA,BEMMEL,lingewaard@straat.info,(026) 326 01 11
Gemeente Lisse,Postbus 200,2160 AE,LISSE,lisse@straat.info,14 0252
Gemeente Lochem,Postbus 17,7240 AA,LOCHEM,lochem@straat.info,(0573) 28 92 22
Gemeente Loon op Zand,Postbus 7,5170 AA,KAATSHEUVEL,loon@straat.info,(0416) 28 91 11
Gemeente Lopik,Postbus 50,3410 CB,LOPIK,lopik@straat.info,(0348) 55 99 55
Gemeente Loppersum,Postbus 25,9919 ZG,LOPPERSUM,loppersum@straat.info,(0596) 54 82 00
Gemeente Losser,Postbus 90,7580 AB,LOSSER,losser@straat.info,(053) 537 74 44
Gemeente Maasdriel,Postbus 10000,5330 GA,KERKDRIEL,maasdriel@straat.info,14 0418
Gemeente Maasgouw,Postbus 7000,6050 AA,MAASBRACHT,maasgouw@straat.info,(0475) 85 25 00
Gemeente Maassluis,Postbus 55,3140 AB,MAASSLUIS,maassluis@straat.info,14 010
Gemeente Maastricht,Postbus 1992,6201 BZ,MAASTRICHT,maastricht@straat.info,14 043
Gemeente Marum,Postbus 2,9363 ZG,MARUM,marum@straat.info,(0594) 64 13 33
Gemeente Medemblik,Postbus 45,1687 ZG,WOGNUM,medemblik@straat.info,(0229) 85 60 00
Gemeente Meerssen,Postbus 90,6230 AB,MEERSSEN,meerssen@straat.info,14 043
Gemeente Meierijstad,Postbus 10001,5460 DA,Veghel,meierijstad@straat.info,14 0413
Gemeente Meppel,Postbus 501,7940 AM,MEPPEL,meppel@straat.info,14 0522
Gemeente Middelburg,Postbus 6000,4330 LA,MIDDELBURG,middelburg@straat.info,14 0118
Gemeente Midden-Delfland,Postbus 1,2636 ZG,SCHIPLUIDEN,middendelfland@straat.info,(015) 380 41 11
Gemeente Midden-Drenthe,Postbus 24,9410 AA,BEILEN,middendrenthe@straat.info,(0593) 53 92 22
Gemeente Midden-Groningen,Postbus 75,9600 AB,HOOGEZAND,middengroningen@straat.info,(0598) 373737
Gemeente Mill en St. Hubert,Postbus 7,5360 AA,GRAVE,mill@straat.info,(0485) 46 03 00
Gemeente Moerdijk,Postbus 4,4760 AA,ZEVENBERGEN,moerdijk@straat.info,(0168) 37 36 00
Gemeente Molenwaard,Postbus 5,2970 AA,BLESKENSGRAAF CA,molenwaard@straat.info,14 0184
Gemeente Montferland,Postbus 47,6940 BA,DIDAM,montferland@straat.info,(0316) 29 13 91
Gemeente Montfoort,Postbus 41,3417 ZG,MONTFOORT,montfoort@straat.info,(0348) 47 64 00
Gemeente Mook en Middelaar,Postbus 200,6585 ZK,MOOK,mook@straat.info,(024) 696 91 11
Gemeente Neder-Betuwe,Postbus 20,4043 ZG,OPHEUSDEN,neder@straat.info,(0488) 44 99 00
Gemeente Nederweert,Postbus 2728,6030 AA,NEDERWEERT,nederweert@straat.info,(0495) 67 71 11
Gemeente Neerijnen,Postbus 30,4180 BA,WAARDENBURG,neerijnen@straat.info,(0418) 65 65 65
Gemeente Nieuwegein,Postbus 1,3430 AA,NIEUWEGEIN,nieuwegein@straat.info,14030
Gemeente Nieuwkoop,Postbus 1,2460 AA,TER AAR,nieuwkoop@straat.info,14 0172
Gemeente Nijkerk,Postbus 1000,3860 BA,NIJKERK GLD,nijkerk@straat.info,14 033
Gemeente Nijmegen,Postbus 9105,6500 HG,NIJMEGEN,nijmegen@straat.info,14-024
Gemeente Nissewaard,Postbus 25,3200 AA,SPIJKENISSE,nissewaard@straat.info,14 0181
Gemeente Noord-Beveland,Postbus 3,4490 AA,WISSENKERKE,noord@straat.info,(0113) 37 73 77
Gemeente Noordenveld,Postbus 109,9300 AC,RODEN,noordenveld@straat.info,14050
Gemeente Noordoostpolder,Postbus 155,8300 AD,EMMELOORD,noordoostpolder@straat.info,(0527) 63 39 11
Gemeente Noordwijk,Postbus 298,2200 AG,NOORDWIJK ZH,noordwijk@straat.info,(071) 366 00 00
Gemeente Noordwijkerhout,Postbus 13,2210 AA,NOORDWIJKERHOUT,noordwijkerhout@straat.info,(0252) 34 37 37
Gemeente Nuenen c.a.,Postbus 10000,5670 GA,NUENEN,nuenen@straat.info,(040) 263 16 31
Gemeente Nunspeet,Postbus 79,8070 AB,NUNSPEET,nunspeet@straat.info,(0341) 25 99 11
Gemeente Nuth,Postbus 22000,6360 AA,NUTH,nuth@straat.info,14045
Gemeente Oegstgeest,Postbus 1270,2340 BG,OEGSTGEEST,oegstgeest@straat.info,(071) 519 17 93
Gemeente Oirschot,Postbus 11,5688 ZG,OIRSCHOT,oirschot@straat.info,(0499) 58 33 33
Gemeente Oisterwijk,Postbus 10101,5060 GA,OISTERWIJK,oisterwijk@straat.info,(013) 529 13 11
Gemeente Oldambt,Postbus 175,9670 AD,WINSCHOTEN,oldambt@straat.info,(0597) 48 20 00
Gemeente Oldebroek,Postbus 2,8096 ZG,OLDEBROEK,oldebroek@straat.info,14 0525
Gemeente Oldenzaal,Postbus 354,7570 AJ,OLDENZAAL,oldenzaal@straat.info,(0541) 58 81 11
Gemeente Olst-Wijhe,Postbus 23,8130 AA,WIJHE,olst@straat.info,14 0570
Gemeente Ommen,Postbus 100,7730 AC,OMMEN,ommen@straat.info,(0529) 45 91 00
Gemeente Onderbanken,Postbus 1090,6450 CB,SCHINVELD,onderbanken@straat.info,(045) 527 87 87
Gemeente Oost Gelre,Postbus 17,7130 AA,LICHTENVOORDE,oost@straat.info,(0544) 39 35 35
Gemeente Oosterhout,Postbus 10150,4900 GB,OOSTERHOUT NB,oosterhout@straat.info,14 0162
Gemeente Ooststellingwerf,Postbus 38,8430 AA,OOSTERWOLDE FR,ooststellingwerf@straat.info,(0516) 56 62 22
Gemeente Oostzaan,Postbus 20,1530 AA,WORMER,oostzaan@straat.info,(075) 651 21 00
Gemeente Opmeer,Postbus 199,1715 ZK,SPANBROEK,opmeer@straat.info,(0226) 36 33 33
Gemeente Opsterland,Postbus 10000,9244 ZP,BEETSTERZWAAG,opsterland@straat.info,(0512) 38 62 22
Gemeente Oss,Postbus 5,5340 BA,OSS,oss@straat.info,14 0412
Gemeente Oud-Beijerland,Postbus 2003,3260 EA,OUD-BEIJERLAND,oud@straat.info,(0186) 64 65 66
Gemeente Oude IJsselstreek,Postbus 42,7080 AA,GENDRINGEN,oude@straat.info,(0315) 29 22 92
Gemeente Ouder-Amstel,Postbus 35,1190 AA,OUDERKERK AAN DE AMSTEL,ouder@straat.info,(020) 496 21 21
Gemeente Oudewater,Postbus 100,3420 DC,OUDEWATER,oudewater@straat.info,(0348) 56 69 99
Gemeente Overbetuwe,Postbus 11,6660 AA,ELST GLD,overbetuwe@straat.info,(0481) 36 23 00
Gemeente Papendrecht,Postbus 11,3350 AA,PAPENDRECHT,papendrecht@straat.info,14078
Gemeente Peel en Maas,Postbus 7088,5980 AB,PANNINGEN,peel@straat.info,(077) 306 66 66
Gemeente Pekela,Postbus 20000,9665 ZM,OUDE PEKELA,pekela@straat.info,(0597) 61 75 55
Gemeente Pijnacker-Nootdorp,Postbus 1,2640 AA,PIJNACKER,pijnacker@straat.info,14 015
Gemeente Purmerend,Postbus 15,1440 AA,PURMEREND,purmerend@straat.info,(0299) 45 24 52
Gemeente Putten,Postbus 400,3880 AK,PUTTEN,putten@straat.info,(0341) 35 96 11
Gemeente Raalte,Postbus 140,8100 AC,RAALTE,raalte@straat.info,(0572) 34 77 99
Gemeente Reimerswaal,Postbus 70,4416 ZH,KRUININGEN,reimerswaal@straat.info,140113
Gemeente Renkum,Postbus 9100,6860 HA,OOSTERBEEK,renkum@straat.info,(026) 334 81 11
Gemeente Renswoude,Postbus 8,3927 ZL,RENSWOUDE,renswoude@straat.info,(0318) 57 81 50
Gemeente Reusel-De Mierden,Postbus 11,5540 AA,REUSEL,reusel@straat.info,(0497) 65 06 50
Gemeente Rheden,Postbus 9110,6994 ZJ,DE STEEG,rheden@straat.info,(026) 497 69 11
Gemeente Rhenen,Postbus 201,3910 AE,RHENEN,rhenen@straat.info,(0317) 68 16 81
Gemeente Ridderkerk,Postbus 271,2980 AG,RIDDERKERK,ridderkerk@straat.info,(0180) 45 12 34
Gemeente Rijssen-Holten,Postbus 244,7460 AE,RIJSSEN,rijssen@straat.info,(0548) 85 48 54
Gemeente Rijswijk,Postbus 5305,2280 HH,RIJSWIJK ZH,rijswijk@straat.info,14070
Gemeente Roerdalen,Postbus 6099,6077 ZH,SINT ODILIENBERG,roerdalen@straat.info,(0475) 53 88 88
Gemeente Roermond,Postbus 900,6040 AX,ROERMOND,roermond@straat.info,14 0475
Gemeente Roosendaal,Postbus 5000,4700 KA,ROOSENDAAL,roosendaal@straat.info,(0165) 57 91 11
Gemeente Rotterdam,Postbus 70012,3000 KP,ROTTERDAM,rotterdam@straat.info,14 010
Gemeente Rozendaal,Postbus 9106,6880 HH,VELP GLD,rozendaal@straat.info,(026) 384 36 66
Gemeente Rucphen,Postbus 9,4715 ZG,RUCPHEN,rucphen@straat.info,(0165) 34 95 00
Gemeente Schagen,Postbus 8,1740 AA,SCHAGEN,schagen@straat.info,(0224) 21 04 00
Gemeente Scherpenzeel,Postbus 100,3925 ZJ,SCHERPENZEEL GLD,scherpenzeel@straat.info,(033) 277 23 24
Gemeente Schiedam,Postbus 1501,3100 EA,SCHIEDAM,schiedam@straat.info,14 010
Gemeente Schiermonnikoog,Postbus 20,9166 ZP,SCHIERMONNIKOOG,schiermonnikoog@straat.info,(0519) 53 50 50
Gemeente Schinnen,Postbus 50,6365 ZH,SCHINNEN,schinnen@straat.info,14 046
Gemeente Schouwen-Duiveland,Postbus 5555,4300 JA,ZIERIKZEE,schouwen@straat.info,(0111) 45 20 00
Gemeente 's-Hertogenbosch,Postbus 12345,5200 GZ,'S-HERTOGENBOSCH,denbosch@straat.info,(073) 615 51 55
Gemeente Simpelveld,Postbus 21000,6369 ZG,SIMPELVELD,simpelveld@straat.info,14 045
Gemeente Sint Anthonis,Postbus 40,5845 ZG,SINT ANTHONIS,sintanthonis@straat.info,(0485) 38 88 88
Gemeente Sint-Michielsgestel,Postbus 10000,5270 GA,SINT-MICHIELSGESTEL,sintmichielsgestel@straat.info,(073) 553 11 11
Gemeente Sittard-Geleen,Postbus 18,6130 AA,SITTARD,sittard@straat.info,14 046
Gemeente Sliedrecht,Postbus 16,3360 AA,SLIEDRECHT,sliedrecht@straat.info,(0184) 49 59 00
Gemeente Sluis,Postbus 27,4500 AA,OOSTBURG,sluis@straat.info,(0117) 45 70 00
Gemeente Smallingerland,Postbus 10000,9200 HA,DRACHTEN,smallingerland@straat.info,(0512) 58 12 34
Gemeente Soest,Postbus 2000,3760 CA,SOEST,soest@straat.info,(035) 609 34 11
Gemeente Someren,Postbus 290,5710 AG,SOMEREN,someren@straat.info,(0493) 49 48 88
Gemeente Son en Breugel,Postbus 8,5690 AA,SON EN BREUGEL,son@straat.info,(0499) 49 14 91
Gemeente Stadskanaal,Postbus 140,9500 AC,STADSKANAAL,stadskanaal@straat.info,(0599) 63 16 31
Gemeente Staphorst,Postbus 2,7950 AA,STAPHORST,staphorst@straat.info,(0522) 46 74 00
Gemeente Stede Broec,Postbus 20,1610 AA,BOVENKARSPEL,stede@straat.info,(0228) 51 01 11
Gemeente Steenbergen,Postbus 6,4650 AA,STEENBERGEN NB,steenbergen@straat.info,140167
Gemeente Steenwijkerland,Postbus 162,8330 AD,STEENWIJK,steenwijkerland@straat.info,14 0521
Gemeente Stein,Postbus 15,6170 AA,STEIN LB,stein@straat.info,(046) 435 93 93
Gemeente Stichtse Vecht,Postbus 1212,3600 BE,MAARSSEN,stichtse@straat.info,(0346) 25 40 00
Gemeente Strijen,Postbus 5881,3290 EA,STRIJEN,strijen@straat.info,(078) 674 82 00
Gemeente Súdwest Fryslân,Postbus 10000,8600 HA,SNEEK,súdwest@straat.info,(0515) 48 90 00
Gemeente Ten Boer,Postbus 7,9790 AA,TEN BOER,ten@straat.info,(050) 302 88 88
Gemeente Terneuzen,Postbus 35,4530 AA,TERNEUZEN,terneuzen@straat.info,140115
Gemeente Terschelling,Postbus 14,8880 AA,WEST-TERSCHELLING,terschelling@straat.info,(0562) 44 62 44
Gemeente Texel,Postbus 200,1790 AE,DEN BURG,texel@straat.info,140222
Gemeente Teylingen,Postbus 149,2215 ZJ,VOORHOUT,teylingen@straat.info,(0252) 78 33 00
Gemeente Tholen,Postbus 51,4690 AB,THOLEN,tholen@straat.info,14 0166
Gemeente Tiel,Postbus 6325,4000 HH,TIEL,tiel@straat.info,(0344) 63 71 11
Gemeente Tilburg,Postbus 90155,5000 LH,TILBURG,tilburg@straat.info,14 013
Gemeente Tubbergen,Postbus 30,7650 AA,TUBBERGEN,tubbergen@straat.info,(0546) 62 80 00
Gemeente Twenterand,Postbus 67,7670 AB,VRIEZENVEEN,twenterand@straat.info,(0546) 84 08 40
Gemeente Tynaarlo,Postbus 5,9480 AA,VRIES,tynaarlo@straat.info,(0592) 26 66 62
Gemeente Tytsjerksteradiel,Postbus 3,9250 AA,BURGUM,tytsjerksteradiel@straat.info,(0511) 46 08 60
Gemeente Uden,Postbus 83,5400 AB,UDEN,uden@straat.info,140413
Gemeente Uitgeest,Postbus 7,1910 AA,UITGEEST,uitgeest@straat.info,14 0251
Gemeente Uithoorn,Postbus 8,1420 AA,UITHOORN,uithoorn@straat.info,(0297) 51 31 11
Gemeente Urk,Postbus 77,8320 AB,URK,urk@straat.info,(0527) 68 98 68
Gemeente Utrecht,Postbus 16200,3500 CE,UTRECHT,utrecht@straat.info,(030) 286 00 00
Gemeente Utrechtse Heuvelrug,Postbus 200,3940 AE,DOORN,utrechtse@straat.info,(0343) 56 56 00
Gemeente Vaals,Postbus 450,6290 AL,VAALS,vaals@straat.info,(043) 306 85 68
Gemeente Valkenburg aan de Geul,Postbus 998,6300 AZ,VALKENBURG LB,valkenburg@straat.info,14 043
Gemeente Valkenswaard,Postbus 10100,5550 GA,VALKENSWAARD,valkenswaard@straat.info,(040) 208 34 44
Gemeente Veendam,Postbus 20004,9640 PA,VEENDAM,veendam@straat.info,(0598) 65 22 22
Gemeente Veenendaal,Postbus 1100,3900 BC,VEENENDAAL,veenendaal@straat.info,(0318) 53 85 38
Gemeente Veere,Postbus 1000,4357 ZV,DOMBURG,veere@straat.info,(0118) 55 54 44
Gemeente Veldhoven,Postbus 10101,5500 GA,VELDHOVEN,veldhoven@straat.info,(040) 258 44 11
Gemeente Velsen,Postbus 465,1970 AL,IJMUIDEN,velsen@straat.info,(0255) 56 72 00
Gemeente Venlo,Postbus 3434,5902 RK,VENLO,venlo@straat.info,14 077
Gemeente Venray,Postbus 500,5800 AM,VENRAY,venray@straat.info,(0478) 52 33 33
Gemeente Vianen,Postbus 46,4130 EA,VIANEN UT,vianen@straat.info,(0347) 36 99 11
Gemeente Vlaardingen,Postbus 1002,3130 EB,VLAARDINGEN,vlaardingen@straat.info,(010) 248 40 00
Gemeente Vlieland,Postbus 10,8899 ZN,VLIELAND,vlieland@straat.info,(0562) 45 27 00
Gemeente Vlissingen,Postbus 3000,4380 GV,VLISSINGEN,vlissingen@straat.info,(0118) 48 70 00
Gemeente Voerendaal,Postbus 23000,6367 ZG,VOERENDAAL,voerendaal@straat.info,(045) 575 33 99
Gemeente Voorschoten,Postbus 393,2250 AJ,VOORSCHOTEN,voorschoten@straat.info,(071) 560 06 00
Gemeente Voorst,Postbus 9000,7390 HA,TWELLO,voorst@straat.info,(0571) 27 99 11
Gemeente Vught,Postbus 10100,5260 GA,VUGHT,vught@straat.info,(073) 658 06 80
Gemeente Waadhoeke,Postbus 58,8800 AB ,FRANEKER,franeker@straat.info ,(0517) 380380
Gemeente Waalre,Postbus 10000,5580 GA,WAALRE,waalre@straat.info,(040) 228 25 00
Gemeente Waalwijk,Postbus 10150,5140 GB,WAALWIJK,waalwijk@straat.info,(0416) 68 34 56
Gemeente Waddinxveen,Postbus 400,2740 AK,WADDINXVEEN,waddinxveen@straat.info,14 0182
Gemeente Wageningen,Postbus 1,6700 AA,WAGENINGEN,wageningen@straat.info,(0317) 49 29 11
Gemeente Wassenaar,Postbus 499,2240 AL,WASSENAAR,wassenaar@straat.info,(070) 512 22 22
Gemeente Waterland,Postbus 1000,1140 BA,MONNICKENDAM,waterland@straat.info,(0299) 65 85 85
Gemeente Weert,Postbus 950,6000 AZ,WEERT,weert@straat.info,(0495) 57 50 00
Gemeente Weesp,Postbus 5099,1380 GB,WEESP,weesp@straat.info,(0294) 49 13 91
Gemeente Werkendam,Postbus 16,4250 DA,WERKENDAM,werkendam@straat.info,(0183) 50 72 00
Gemeente West Maas en Waal,Postbus 1,6658 ZG,BENEDEN-LEEUWEN,west@straat.info,14 0487
Gemeente Westerveld,Postbus 50,7970 AB,HAVELTE,westerveld@straat.info,(0521) 34 93 49
Gemeente Westervoort,Postbus 40,6930 AA,WESTERVOORT,westervoort@straat.info,(026) 317 99 11
Gemeente Westland,Postbus 150,2670 AD,NAALDWIJK,westland@straat.info,14 0174
Gemeente Weststellingwerf,Postbus 60,8470 AB,WOLVEGA,weststellingwerf@straat.info,140561
Gemeente Westvoorne,Postbus 550,3235 ZH,ROCKANJE,westvoorne@straat.info,(0181) 40 80 00
Gemeente Westerwolde,Postbus 14,9550 AA,SELLINGEN,westerwolde@straat.info,(0599) 32 02 20
Gemeente Wierden,Postbus 43,7640 AA,WIERDEN,wierden@straat.info,(0546) 58 08 00
Gemeente Wijchen,Postbus 9000,6600 HA,WIJCHEN,wijchen@straat.info,14 024
Gemeente Wijdemeren,Postbus 190,1230 AD,LOOSDRECHT,wijdemeren@straat.info,(035) 655 95 95
Gemeente Wijk bij Duurstede,Postbus 83,3960 BB,WIJK BIJ DUURSTEDE,wijk@straat.info,(0343) 59 55 95
Gemeente Winsum,Postbus 10,9950 AA,WINSUM GN,winsum@straat.info,(0595) 44 77 77
Gemeente Winterswijk,Postbus 101,7100 AC,WINTERSWIJK,winterswijk@straat.info,(0543) 54 35 43
Gemeente Woensdrecht,Postbus 24,4630 AA,HOOGERHEIDE,woensdrecht@straat.info,14 0164
Gemeente Woerden,Blekerijlaan 14,3447 GR,WOERDEN,woerden@straat.info,14 0348
Gemeente Wormerland,Postbus 20,1530 AA,WORMER,wormerland@straat.info,(075) 642 90 00
Gemeente Woudenberg,Postbus 16,3930 EA,WOUDENBERG,woudenberg@straat.info,(033) 286 91 00
Gemeente Woudrichem,Postbus 6,4285 ZG,WOUDRICHEM,woudrichem@straat.info,(0183) 30 81 00
Gemeente Zaanstad,Postbus 2000,1500 GA,ZAANDAM,zaanstad@straat.info,14075
Gemeente Zaltbommel,Postbus 10002,5300 DA,ZALTBOMMEL,zaltbommel@straat.info,14 0418
Gemeente Zandvoort,Postbus 2,2040 AA,ZANDVOORT,zandvoort@straat.info,(023) 574 01 00
Gemeente Zederik,Postbus 1,4230 BA,MEERKERK,zederik@straat.info,(0183) 35 65 00
Gemeente Zeewolde,Postbus 1,3890 AA,ZEEWOLDE,zeewolde@straat.info,(036) 522 95 22
Gemeente Zeist,Postbus 513,3700 AM,ZEIST,zeist@straat.info,14 030
Gemeente Zevenaar,Postbus 10,6900 AA,ZEVENAAR,zevenaar@straat.info,(0316) 59 51 11
Gemeente Zoetermeer,Postbus 15,2700 AA,ZOETERMEER,zoetermeer@straat.info,14 079
Gemeente Zoeterwoude,Postbus 34,2380 AA,ZOETERWOUDE,zoeterwoude@straat.info,(071) 580 63 00
Gemeente Zuidhorn,Postbus 3,9800 AA,ZUIDHORN,zuidhorn@straat.info,(0594) 50 88 88
Gemeente Zuidplas,Postbus 100,2910 AC,NIEUWERKERK AD IJSSEL,zuidplas@straat.info,(0180) 33 03 00
Gemeente Zundert,Postbus 10001,4880 GA,ZUNDERT,zundert@straat.info,(076) 599 56 00
Gemeente Zutphen,Postbus 41,7200 AA,ZUTPHEN,zutphen@straat.info,14 0575
Gemeente Zwartewaterland,Postbus 23,8060 AA,HASSELT,zwartewaterland@straat.info,(038) 385 30 00
Gemeente Zwijndrecht,Postbus 15,3330 AA,ZWIJNDRECHT,zwijndrecht@straat.info,14078
Gemeente Zwolle,Postbus 10007,8000 GA,ZWOLLE,zwolle@straat.info,14038