hostName,alternateHostName,email,houseNumber,street ,address,city,state,country,postalCode,phoneNumber,fname,lname,personalEmail,long,lat
Gemeente Aa en Hunze,,aa@straat.info,,,Postbus 93,GIETEN,nvt,Nederland,9460 AB,14 0592,first,last,personal@straat.info,4.3151,52.0612965
Gemeente Aalsmeer,,aalsmeer@straat.info,,,Postbus 253,AALSMEER,nvt,Nederland,1430 AG,(0297) 38 75 75,first,last,personal@straat.info,4.3151,52.0612965
Gemeente Aalten,,aalten@straat.info,,,Postbus 119,AALTEN,nvt,Nederland,7120 AC,(0543) 49 33 33,first,last,personal@straat.info,4.3151,52.0612965
Gemeente Achtkarspelen,,achtkarspelen@straat.info,,,Postbus 2,BUITENPOST,nvt,Nederland,9285 ZV,14 0511,first,last,personal@straat.info,4.3151,52.0612965
Gemeente Alblasserdam,,alblasserdam@straat.info,,,Postbus 2,ALBLASSERDAM,nvt,Nederland,2950 AA,14 078,first,last,personal@straat.info,4.3151,52.0612965
Gemeente Albrandswaard,,albrandswaard@straat.info,,,Postbus 1000,RHOON,nvt,Nederland,3160 GA,(010) 506 11 11,first,last,personal@straat.info,4.3151,52.0612965
Gemeente Alkmaar,,alkmaar@straat.info,,,Postbus 53,ALKMAAR,nvt,Nederland,1800 BC,14 072,first,last,personal@straat.info,4.3151,52.0612965
Gemeente Almelo,,almelo@straat.info,,,Postbus 5100,ALMELO,nvt,Nederland,7600 GC,(0546) 54 11 11,first,last,personal@straat.info,4.3151,52.0612965
Gemeente Almere,,almere@straat.info,,,Postbus 200,ALMERE,nvt,Nederland,1300 AE,14 036,first,last,personal@straat.info,4.3151,52.0612965
Gemeente Alphen aan den Rijn,,alphenaandenrijn@straat.info,,,Postbus 13,ALPHEN AAN DEN RIJN,nvt,Nederland,2400 AA,14 0172,first,last,personal@straat.info,4.3151,52.0612965
Gemeente Alphen-Chaam,,alphenchaam@straat.info,,,Postbus 3,ALPHEN NB,nvt,Nederland,5130 AA,(013) 508 66 66,first,last,personal@straat.info,4.3151,52.0612965
Gemeente Altena,,info@gemeentealtena.nl,,,Postbus 5,Almkerk,nvt,Nederland,4286 ZG,(0183) 51 61 00,first,last,personal@straat.info,4.3151,52.0612965
Gemeente Ameland,,ameland@straat.info,,,Postbus 22,HOLLUM,nvt,Nederland,9160 AA,(0519) 55 55 55,first,last,personal@straat.info,4.3151,52.0612965
Gemeente Amersfoort,,amersfoort@straat.info,,,Postbus 4000,AMERSFOORT,nvt,Nederland,3800 EA,14 033,first,last,personal@straat.info,4.3151,52.0612965
Gemeente Amstelveen,,amstelveen@straat.info,,,Postbus 4,AMSTELVEEN,nvt,Nederland,1180 BA,(020) 540 49 11,first,last,personal@straat.info,4.3151,52.0612965
Gemeente Amsterdam,,amsterdam@straat.info,,,Postbus 202,AMSTERDAM,nvt,Nederland,1000 AE,14 020,first,last,personal@straat.info,4.3151,52.0612965
Gemeente Apeldoorn,,apeldoorn@straat.info,,,Postbus 9033,APELDOORN,nvt,Nederland,7300 ES,14 055,first,last,personal@straat.info,4.3151,52.0612965
Gemeente Appingedam,,appingedam@straat.info,,,Postbus 15,APPINGEDAM,nvt,Nederland,9900 AA,14 0596,first,last,personal@straat.info,4.3151,52.0612965
Gemeente Arnhem,,arnhem@straat.info,,,Postbus 9029,ARNHEM,nvt,Nederland,6800 EL,0900 1809,first,last,personal@straat.info,4.3151,52.0612965
Gemeente Assen,,assen@straat.info,,,Postbus 30018,ASSEN,nvt,Nederland,9400 RA,(0592) 36 69 11,first,last,personal@straat.info,4.3151,52.0612965
Gemeente Asten,,asten@straat.info,,,Postbus 290,ASTEN,nvt,Nederland,5720 AG,(0493) 67 12 12,first,last,personal@straat.info,4.3151,52.0612965
Gemeente Baarle-Nassau,,baarle@straat.info,,,Postbus 105,BAARLE-NASSAU,nvt,Nederland,5110 AC,(013) 507 52 00,first,last,personal@straat.info,4.3151,52.0612965
Gemeente Baarn,,baarn@straat.info,,,Postbus 1003,BAARN,nvt,Nederland,3740 BA,(035) 548 16 11,first,last,personal@straat.info,4.3151,52.0612965
Gemeente Barendrecht,,barendrecht@straat.info,,,Postbus 501,BARENDRECHT,nvt,Nederland,2990 EA,14 0180,first,last,personal@straat.info,4.3151,52.0612965
Gemeente Barneveld,,barneveld@straat.info,,,Postbus 63,BARNEVELD,nvt,Nederland,3770 AB,14 0342,first,last,personal@straat.info,4.3151,52.0612965
Gemeente Beek,,beek@straat.info,,,Postbus 20,BEEK LB,nvt,Nederland,6190 AA,(046) 438 92 22,first,last,personal@straat.info,4.3151,52.0612965
Gemeente Beekdaelen,,gemeente@beekdaelen.nl,,,Postbus 22000,Nuth,nvt,Nederland,6360 AA,088 - 450 2000,first,last,personal@straat.info,4.3151,52.0612965
Gemeente Beemster,,beemster@straat.info,,,Postbus 7,MIDDENBEEMSTER,nvt,Nederland,1462 ZG,(0299) 68 21 00,first,last,personal@straat.info,4.3151,52.0612965
Gemeente Beesel,,beesel@straat.info,,,Postbus 4750,REUVER,nvt,Nederland,5953 ZK,(077) 474 92 92,first,last,personal@straat.info,4.3151,52.0612965
Gemeente Berg en Dal,,bergendal@straat.info,,,Dorpsplein 1,GROESBEEK,nvt,Nederland,6562 AH,14024,first,last,personal@straat.info,4.3151,52.0612965
Gemeente Bergeijk,,bergeijk@straat.info,,,Postbus 10000,BERGEIJK,nvt,Nederland,5570 GA,(0497) 55 14 55,first,last,personal@straat.info,4.3151,52.0612965
Gemeente Bergen L,,bergenLIMBURG@straat.info,,,Postbus 140,BERGEN LB,nvt,Nederland,5854 ZJ,(0485) 34 83 83,first,last,personal@straat.info,4.3151,52.0612965
Gemeente Bergen (NH),,bergenNOORDHOLLAND@straat.info,,,Postbus 175,BERGEN NH,nvt,Nederland,1860 AD,(072) 888 00 00,first,last,personal@straat.info,4.3151,52.0612965
Gemeente Bergen op Zoom,,bergenopzoom@straat.info,,,Postbus 35,BERGEN OP ZOOM,nvt,Nederland,4600 AA,(0164) 27 70 00,first,last,personal@straat.info,4.3151,52.0612965
Gemeente Berkelland,,berkelland@straat.info,,,Postbus 200,BORCULO,nvt,Nederland,7270 HA,(0545) 25 02 50,first,last,personal@straat.info,4.3151,52.0612965
Gemeente Bernheze,,bernheze@straat.info,,,Postbus 19,HEESCH,nvt,Nederland,5384 ZG,(0412) 45 88 88,first,last,personal@straat.info,4.3151,52.0612965
Gemeente Best,,best@straat.info,,,Postbus 50,BEST,nvt,Nederland,5680 AB,(0499) 36 09 11,first,last,personal@straat.info,4.3151,52.0612965
Gemeente Beuningen,,beuningen@straat.info,,,Postbus 14,BEUNINGEN GLD,nvt,Nederland,6640 AA,14 024,first,last,personal@straat.info,4.3151,52.0612965
Gemeente Beverwijk,,beverwijk@straat.info,,,Postbus 450,BEVERWIJK,nvt,Nederland,1940 AL,(0251) 25 62 56,first,last,personal@straat.info,4.3151,52.0612965
Gemeente Bladel,,bladel@straat.info,,,Postbus 11,BLADEL,nvt,Nederland,5530 AA,(0497) 36 16 36,first,last,personal@straat.info,4.3151,52.0612965
Gemeente Blaricum,,blaricum@straat.info,,,Postbus 71,EEMNES,nvt,Nederland,3755 ZH,(035) 751 32 22,first,last,personal@straat.info,4.3151,52.0612965
Gemeente Bloemendaal,,bloemendaal@straat.info,,,Postbus 201,OVERVEEN,nvt,Nederland,2050 AE,14 023,first,last,personal@straat.info,4.3151,52.0612965
Gemeente Bodegraven-Reeuwijk,,bodegraven@straat.info,,,Postbus 401,BODEGRAVEN,nvt,Nederland,2410 AK,(0172) 52 25 22,first,last,personal@straat.info,4.3151,52.0612965
Gemeente Boekel,,boekel@straat.info,,,Postbus 99,BOEKEL,nvt,Nederland,5427 ZH,(0492) 32 68 00,first,last,personal@straat.info,4.3151,52.0612965
Gemeente Borger-Odoorn,,borger@straat.info,,,Postbus 3,EXLOO,nvt,Nederland,7875 ZG,14 0591,first,last,personal@straat.info,4.3151,52.0612965
Gemeente Borne,,borne@straat.info,,,Postbus 200,BORNE,nvt,Nederland,7620 AE,(074) 265 86 86,first,last,personal@straat.info,4.3151,52.0612965
Gemeente Borsele,,borsele@straat.info,,,Postbus 1,HEINKENSZAND,nvt,Nederland,4450 AA,(0113) 23 83 83,first,last,personal@straat.info,4.3151,52.0612965
Gemeente Boxmeer,,boxmeer@straat.info,,,Postbus 450,BOXMEER,nvt,Nederland,5830 AL,(0485) 58 59 11,first,last,personal@straat.info,4.3151,52.0612965
Gemeente Boxtel,,boxtel@straat.info,,,Postbus 10000,BOXTEL,nvt,Nederland,5280 DA,(0411) 65 59 11,first,last,personal@straat.info,4.3151,52.0612965
Gemeente Breda,,breda@straat.info,,,Postbus 90156,BREDA,nvt,Nederland,4800 RH,14 076,first,last,personal@straat.info,4.3151,52.0612965
Gemeente Brielle,,brielle@straat.info,,,Postbus 101,BRIELLE,nvt,Nederland,3230 AC,(0181) 47 11 11,first,last,personal@straat.info,4.3151,52.0612965
Gemeente Bronckhorst,,bronckhorst@straat.info,,,Postbus 200,HENGELO GLD,nvt,Nederland,7255 ZJ,(0575) 75 02 50,first,last,personal@straat.info,4.3151,52.0612965
Gemeente Brummen,,brummen@straat.info,,,Postbus 5,BRUMMEN,nvt,Nederland,6970 AA,(0575) 56 82 33,first,last,personal@straat.info,4.3151,52.0612965
Gemeente Brunssum,,brunssum@straat.info,,,Postbus 250,BRUNSSUM,nvt,Nederland,6440 AG,(045) 527 85 55,first,last,personal@straat.info,4.3151,52.0612965
Gemeente Bunnik,,bunnik@straat.info,,,Postbus 5,BUNNIK,nvt,Nederland,3980 CA,(030) 659 48 48,first,last,personal@straat.info,4.3151,52.0612965
Gemeente Bunschoten,,bunschoten@straat.info,,,Postbus 200,BUNSCHOTEN-SPAKENBURG,nvt,Nederland,3750 GE,14 033,first,last,personal@straat.info,4.3151,52.0612965
Gemeente Buren,,buren@straat.info,,,Postbus 23,MAURIK,nvt,Nederland,4020 BA,14 0344,first,last,personal@straat.info,4.3151,52.0612965
Gemeente Capelle aan den IJssel,,capelle@straat.info,,,Postbus 70,CAPELLE AAN DEN IJSSEL,nvt,Nederland,2900 AB,(010) 284 84 84,first,last,personal@straat.info,4.3151,52.0612965
Gemeente Castricum,,castricum@straat.info,,,Postbus 1301,CASTRICUM,nvt,Nederland,1900 BH,(0251) 66 11 22,first,last,personal@straat.info,4.3151,52.0612965
Gemeente Coevorden,,coevorden@straat.info,,,Postbus 2,COEVORDEN,nvt,Nederland,7740 AA,14 0524,first,last,personal@straat.info,4.3151,52.0612965
Gemeente Cranendonck,,cranendonck@straat.info,,,Postbus 2090,BUDEL,nvt,Nederland,6020 AB,(0495) 43 12 22,first,last,personal@straat.info,4.3151,52.0612965
Gemeente Cuijk,,cuijk@straat.info,,,Postbus 7,GRAVE,nvt,Nederland,5360 AA,(0485) 39 66 00,first,last,personal@straat.info,4.3151,52.0612965
Gemeente Culemborg,,culemborg@straat.info,,,Postbus 136,CULEMBORG,nvt,Nederland,4100 AC,(0345) 47 77 00,first,last,personal@straat.info,4.3151,52.0612965
Gemeente Dalfsen,,dalfsen@straat.info,,,Postbus 35,DALFSEN,nvt,Nederland,7720 AA,(0529) 48 83 88,first,last,personal@straat.info,4.3151,52.0612965
Gemeente Dantumadiel,,dantumadiel@straat.info,,,Postbus 22,DAMWALD,nvt,Nederland,9104 ZG,14+ 0511,first,last,personal@straat.info,4.3151,52.0612965
Gemeente De Bilt,,debilst@straat.info,,,Postbus 300,BILTHOVEN,nvt,Nederland,3720 AH,(030) 228 94 11,first,last,personal@straat.info,4.3151,52.0612965
Gemeente De Fryske Marren,,Defryskemarren@straat.info,,,Postbus 101,JOURE,nvt,Nederland,8500 AC,14 05 14,first,last,personal@straat.info,4.3151,52.0612965
Gemeente De Ronde Venen,,derondevenen@straat.info,,,Postbus 250,MIJDRECHT,nvt,Nederland,3640 AG,(0297) 29 16 16,first,last,personal@straat.info,4.3151,52.0612965
Gemeente De Wolden,,dewolden@straat.info,,,Postbus 20,ZUIDWOLDE DR,nvt,Nederland,7920 AA,14 0528,first,last,personal@straat.info,4.3151,52.0612965
Gemeente Delft,,delft@straat.info,,,Postbus 78,DELFT,nvt,Nederland,2600 ME,14 015,first,last,personal@straat.info,4.3151,52.0612965
Gemeente Delfzijl,,delfzijl@straat.info,,,Postbus 20000,DELFZIJL,nvt,Nederland,9930 PA,14 0596,first,last,personal@straat.info,4.3151,52.0612965
Gemeente Den Helder,,denhelder@straat.info,,,Postbus 36,DEN HELDER,nvt,Nederland,1780 AA,(0223) 67 12 00,first,last,personal@straat.info,4.3151,52.0612965
Gemeente Deurne,,deurne@straat.info,,,Postbus 3,DEURNE,nvt,Nederland,5750 AA,(0493) 38 77 11,first,last,personal@straat.info,4.3151,52.0612965
Gemeente Deventer,,deventer@straat.info,,,Postbus 5000,DEVENTER,nvt,Nederland,7400 GC,14 0570,first,last,personal@straat.info,4.3151,52.0612965
Gemeente Diemen,,diemen@straat.info,,,Postbus 191,DIEMEN,nvt,Nederland,1110 AD,(020) 314 48 88,first,last,personal@straat.info,4.3151,52.0612965
Gemeente Dinkelland,,dinkelland@straat.info,,,Postbus 11,DENEKAMP,nvt,Nederland,7590 AA,(0541) 85 41 00,first,last,personal@straat.info,4.3151,52.0612965
Gemeente Doesburg,,doesburg@straat.info,,,Postbus 100,DOESBURG,nvt,Nederland,6980 AC,(0313) 48 13 13,first,last,personal@straat.info,4.3151,52.0612965
Gemeente Doetinchem,,doetinchem@straat.info,,,Postbus 9020,DOETINCHEM,nvt,Nederland,7000 HA,(0314) 37 73 77,first,last,personal@straat.info,4.3151,52.0612965
Gemeente Dongen,,dongen@straat.info,,,Postbus 10153,DONGEN,nvt,Nederland,5100 GE,(0162) 38 32 00,first,last,personal@straat.info,4.3151,52.0612965
Gemeente Dordrecht,,dordrecht@straat.info,,,Postbus 8,DORDRECHT,nvt,Nederland,3300 AA,14 078,first,last,personal@straat.info,4.3151,52.0612965
Gemeente Drechterland,,drechterland@straat.info,,,Postbus 9,HOOGKARSPEL,nvt,Nederland,1616 ZG,(0228) 35 23 52,first,last,personal@straat.info,4.3151,52.0612965
Gemeente Drimmelen,,drimmelen@straat.info,,,Postbus 19,MADE,nvt,Nederland,4920 AA,(0162) 69 01 90,first,last,personal@straat.info,4.3151,52.0612965
Gemeente Dronten,,dronten@straat.info,,,Postbus 100,DRONTEN,nvt,Nederland,8250 AC,14 0321,first,last,personal@straat.info,4.3151,52.0612965
Gemeente Druten,,druten@straat.info,,,Postbus 1,DRUTEN,nvt,Nederland,6650 AA,14 0487,first,last,personal@straat.info,4.3151,52.0612965
Gemeente Duiven,,duiven@straat.info,,,Postbus 6,DUIVEN,nvt,Nederland,6920 AA,(0316) 27 91 11,first,last,personal@straat.info,4.3151,52.0612965
Gemeente Echt-Susteren,,echt@straat.info,,,Postbus 450,ECHT,nvt,Nederland,6100 AL,(0475) 47 84 78,first,last,personal@straat.info,4.3151,52.0612965
Gemeente Edam-Volendam,,edam@straat.info,,,Postbus 180,VOLENDAM,nvt,Nederland,1130 AD,(0299) 39 83 98,first,last,personal@straat.info,4.3151,52.0612965
Gemeente Ede,,ede@straat.info,,,Postbus 9022,EDE GLD,nvt,Nederland,6710 HK,14-0318,first,last,personal@straat.info,4.3151,52.0612965
Gemeente Eemnes,,eemnes@straat.info,,,Postbus 71,EEMNES,nvt,Nederland,3755 ZH,14 035,first,last,personal@straat.info,4.3151,52.0612965
Gemeente Eersel,,eersel@straat.info,,,Postbus 12,EERSEL,nvt,Nederland,5520 AA,(0497) 53 13 00,first,last,personal@straat.info,4.3151,52.0612965
Gemeente Eijsden-Margraten,,eijsden@straat.info,,,Postbus 10,MARGRATEN,nvt,Nederland,6269 ZG,(043) 458 84 88,first,last,personal@straat.info,4.3151,52.0612965
Gemeente Eindhoven,,eindhoven@straat.info,,,Postbus 90150,EINDHOVEN,nvt,Nederland,5600 RB,14 040,first,last,personal@straat.info,4.3151,52.0612965
Gemeente Elburg,,elburg@straat.info,,,Postbus 70,ELBURG,nvt,Nederland,8080 AB,(0525) 68 86 88,first,last,personal@straat.info,4.3151,52.0612965
Gemeente Emmen,,emmen@straat.info,,,Postbus 30001,EMMEN,nvt,Nederland,7800 RA,14 0591,first,last,personal@straat.info,4.3151,52.0612965
Gemeente Enkhuizen,,enkhuizen@straat.info,,,Postbus 11,ENKHUIZEN,nvt,Nederland,1600 AA,(0228) 36 01 00,first,last,personal@straat.info,4.3151,52.0612965
Gemeente Enschede,,enschede@straat.info,,,Postbus 20,ENSCHEDE,nvt,Nederland,7500 AA,14 053,first,last,personal@straat.info,4.3151,52.0612965
Gemeente Epe,,epe@straat.info,,,Postbus 600,EPE,nvt,Nederland,8160 AP,14 0578,first,last,personal@straat.info,4.3151,52.0612965
Gemeente Ermelo,,ermelo@straat.info,,,Postbus 500,ERMELO,nvt,Nederland,3850 AM,(0341) 56 73 21,first,last,personal@straat.info,4.3151,52.0612965
Gemeente Etten-Leur,,etten@straat.info,,,Postbus 10100,ETTEN-LEUR,nvt,Nederland,4870 GA,14 076,first,last,personal@straat.info,4.3151,52.0612965
Gemeente Geertruidenberg,,geertruidenberg@straat.info,,,Postbus 10001,RAAMSDONKSVEER,nvt,Nederland,4940 GA,14 0162,first,last,personal@straat.info,4.3151,52.0612965
Gemeente Geldrop-Mierlo,,geldrop@straat.info,,,Postbus 10101,GELDROP,nvt,Nederland,5660 GA,14 040,first,last,personal@straat.info,4.3151,52.0612965
Gemeente Gemert-Bakel,,gemert@straat.info,,,Postbus 10000,GEMERT,nvt,Nederland,5420 DA,(0492) 37 85 00,first,last,personal@straat.info,4.3151,52.0612965
Gemeente Gennep,,gennep@straat.info,,,Postbus 9003,GENNEP,nvt,Nederland,6590 HD,(0485) 49 41 41,first,last,personal@straat.info,4.3151,52.0612965
Gemeente Gilze en Rijen,,gilze@straat.info,,,Postbus 73,RIJEN,nvt,Nederland,5120 AB,14 0161,first,last,personal@straat.info,4.3151,52.0612965
Gemeente Goeree-Overflakkee,,goeree@straat.info,,,Postbus 1,MIDDELHARNIS,nvt,Nederland,3240 AA,14 0187,first,last,personal@straat.info,4.3151,52.0612965
Gemeente Goes,,goes@straat.info,,,Postbus 2118,GOES,nvt,Nederland,4460 MC,(0113) 24 96 00,first,last,personal@straat.info,4.3151,52.0612965
Gemeente Goirle,,goirle@straat.info,,,Postbus 17,GOIRLE,nvt,Nederland,5050 AA,(013) 531 06 10,first,last,personal@straat.info,4.3151,52.0612965
Gemeente Gooise Meren,,gooise@straat.info,,,Postbus 6000,Bussum,nvt,Nederland,1400 HA,(035) 207 00 00,first,last,personal@straat.info,4.3151,52.0612965
Gemeente Gorinchem,,gorinchem@straat.info,,,Postbus 108,GORINCHEM,nvt,Nederland,4200 AC,(0183) 65 95 95,first,last,personal@straat.info,4.3151,52.0612965
Gemeente Gouda,,gouda@straat.info,,,Postbus 1086,GOUDA,nvt,Nederland,2800 BB,14 0182,first,last,personal@straat.info,4.3151,52.0612965
Gemeente Grave,,grave@straat.info,,,Postbus 7,GRAVE,nvt,Nederland,5360 AA,(0486) 47 72 77,first,last,personal@straat.info,4.3151,52.0612965
Gemeente Groningen,,groningen@straat.info,,,Postbus 20001,GRONINGEN,nvt,Nederland,9700 PB,14 050,first,last,personal@straat.info,4.3151,52.0612965
Gemeente Gulpen-Wittem,,gulpen@straat.info,,,Postbus 56,GULPEN,nvt,Nederland,6270 AB,(043) 880 06 00,first,last,personal@straat.info,4.3151,52.0612965
Gemeente Haaksbergen,,haaksbergen@straat.info,,,Postbus 102,HAAKSBERGEN,nvt,Nederland,7480 AC,(053) 573 45 67,first,last,personal@straat.info,4.3151,52.0612965
Gemeente Haaren,,haaren@straat.info,,,Postbus 44,HAAREN,nvt,Nederland,5076 ZG,(0411) 62 72 82,first,last,personal@straat.info,4.3151,52.0612965
Gemeente Haarlem,,haarlem@straat.info,,,Postbus 511,HAARLEM,nvt,Nederland,2003 PB,14 023,first,last,personal@straat.info,4.3151,52.0612965
Gemeente Haarlemmermeer,,haarlemmermeer@straat.info,,,Postbus 250,HOOFDDORP,nvt,Nederland,2130 AG,0900 1852,first,last,personal@straat.info,4.3151,52.0612965
Gemeente Halderberge,,halderberge@straat.info,,,Postbus 5,OUDENBOSCH,nvt,Nederland,4730 AA,(0165) 39 05 00,first,last,personal@straat.info,4.3151,52.0612965
Gemeente Hardenberg,,hardenberg@straat.info,,,Postbus 500,HARDENBERG,nvt,Nederland,7770 BA,14 0523,first,last,personal@straat.info,4.3151,52.0612965
Gemeente Harderwijk,,harderwijk@straat.info,,,Postbus 149,HARDERWIJK,nvt,Nederland,3840 AC,(0341) 41 19 11,first,last,personal@straat.info,4.3151,52.0612965
Gemeente Hardinxveld-Giessendam,,hardinxveld@straat.info,,,Postbus 175,HARDINXVELD-GIESSENDAM,nvt,Nederland,3370 AD,14 0184,first,last,personal@straat.info,4.3151,52.0612965
Gemeente Harlingen,,harlingen@straat.info,,,Postbus 10000,HARLINGEN,nvt,Nederland,8860 HA,(0517) 49 22 22,first,last,personal@straat.info,4.3151,52.0612965
Gemeente Hattem,,hattem@straat.info,,,Postbus 93,HATTEM,nvt,Nederland,8050 AB,(038) 443 16 16,first,last,personal@straat.info,4.3151,52.0612965
Gemeente Heemskerk,,heemskerk@straat.info,,,Postbus 1,HEEMSKERK,nvt,Nederland,1960 AA,14 0251,first,last,personal@straat.info,4.3151,52.0612965
Gemeente Heemstede,,heemstede@straat.info,,,Postbus 352,HEEMSTEDE,nvt,Nederland,2100 AJ,14 023,first,last,personal@straat.info,4.3151,52.0612965
Gemeente Heerde,,heerde@straat.info,,,Postbus 175,HEERDE,nvt,Nederland,8180 AD,(0578) 69 94 94,first,last,personal@straat.info,4.3151,52.0612965
Gemeente Heerenveen,,heerenveen@straat.info,,,Postbus 15000,HEERENVEEN,nvt,Nederland,8440 GA,(0513) 61 76 17,first,last,personal@straat.info,4.3151,52.0612965
Gemeente Heerhugowaard,,heerhugowaard@straat.info,,,Postbus 390,HEERHUGOWAARD,nvt,Nederland,1700 AJ,14 072,first,last,personal@straat.info,4.3151,52.0612965
Gemeente Heerlen,,heerlen@straat.info,,,Postbus 1,HEERLEN,nvt,Nederland,6400 AA,14 045,first,last,personal@straat.info,4.3151,52.0612965
Gemeente Heeze-Leende,,heeze@straat.info,,,Postbus 10000,HEEZE,nvt,Nederland,5590 GA,(040) 224 14 00,first,last,personal@straat.info,4.3151,52.0612965
Gemeente Heiloo,,heiloo@straat.info,,,Postbus 1,HEILOO,nvt,Nederland,1850 AA,(072) 535 66 66,first,last,personal@straat.info,4.3151,52.0612965
Gemeente Hellendoorn,,hellendoorn@straat.info,,,Postbus 200,NIJVERDAL,nvt,Nederland,7440 AE,(0548) 63 00 00,first,last,personal@straat.info,4.3151,52.0612965
Gemeente Hellevoetsluis,,hellevoetsluis@straat.info,,,Postbus 13,HELLEVOETSLUIS,nvt,Nederland,3220 AA,14 0181,first,last,personal@straat.info,4.3151,52.0612965
Gemeente Helmond,,helmond@straat.info,,,Postbus 950,HELMOND,nvt,Nederland,5700 AZ,14 0492,first,last,personal@straat.info,4.3151,52.0612965
Gemeente Hendrik-Ido-Ambacht,,hendrik@straat.info,,,Postbus 34,HENDRIK-IDO-AMBACHT,nvt,Nederland,3340 AA,14 078,first,last,personal@straat.info,4.3151,52.0612965
Gemeente Hengelo,,hengelo@straat.info,,,Postbus 18,HENGELO OV,nvt,Nederland,7550 AA,(074) 245 98 76,first,last,personal@straat.info,4.3151,52.0612965
Gemeente Het Hogeland,,gemeente@hethogeland.nl,,,Postbus 26,Uithuizen,nvt,Nederland,9980 AA,088 345888,first,last,personal@straat.info,4.3151,52.0612965
Gemeente Heumen,,heumen@straat.info,,,Postbus 200,MALDEN,nvt,Nederland,6580 AZ,14 024,first,last,personal@straat.info,4.3151,52.0612965
Gemeente Heusden,,heusden@straat.info,,,Postbus 41,VLIJMEN,nvt,Nederland,5250 AA,14 073,first,last,personal@straat.info,4.3151,52.0612965
Gemeente Hillegom,,hillegom@straat.info,,,Postbus 32,HILLEGOM,nvt,Nederland,2180 AA,14 0252,first,last,personal@straat.info,4.3151,52.0612965
Gemeente Hilvarenbeek,,hilvarenbeek@straat.info,,,Postbus 3,HILVARENBEEK,nvt,Nederland,5080 AA,(013) 505 83 83,first,last,personal@straat.info,4.3151,52.0612965
Gemeente Hilversum,,hilversum@straat.info,,,Postbus 9900,HILVERSUM,nvt,Nederland,1201 GM,14 035,first,last,personal@straat.info,4.3151,52.0612965
Gemeente Hoeksche Waard,,info@gemeentehw.nl,,,Postbus 2003,Oud-Beijerland,nvt,Nederland,3260 EA,088 647 36 47,first,last,personal@straat.info,4.3151,52.0612965
Gemeente Hof van Twente,,hof@straat.info,,,Postbus 54,GOOR,nvt,Nederland,7470 AB,(0547) 85 85 85,first,last,personal@straat.info,4.3151,52.0612965
Gemeente Hollands Kroon,,hollands@straat.info,,,Postbus 8,ANNA PAULOWNA,nvt,Nederland,1760 AA,(088) 321 50 00,first,last,personal@straat.info,4.3151,52.0612965
Gemeente Hoogeveen,,hoogeveen@straat.info,,,Postbus 20000,HOOGEVEEN,nvt,Nederland,7900 PA,14 0528,first,last,personal@straat.info,4.3151,52.0612965
Gemeente Hoorn,,hoorn@straat.info,,,Postbus 603,HOORN NH,nvt,Nederland,1620 AR,(0229) 25 22 00,first,last,personal@straat.info,4.3151,52.0612965
Gemeente Horst aan de Maas,,horst@straat.info,,,Postbus 6005,HORST,nvt,Nederland,5960 AA,(077) 477 97 77,first,last,personal@straat.info,4.3151,52.0612965
Gemeente Houten,,houten@straat.info,,,Postbus 30,HOUTEN,nvt,Nederland,3990 DA,(030) 639 26 11,first,last,personal@straat.info,4.3151,52.0612965
Gemeente Huizen,,huizen@straat.info,,,Postbus 5,HUIZEN,nvt,Nederland,1270 AA,(035) 528 19 11,first,last,personal@straat.info,4.3151,52.0612965
Gemeente Hulst,,hulst@straat.info,,,Postbus 49,HULST,nvt,Nederland,4560 AA,14 0114,first,last,personal@straat.info,4.3151,52.0612965
Gemeente IJsselstein,,ijsselstein@straat.info,,,Postbus 26,IJSSELSTEIN UT,nvt,Nederland,3400 AA,14 030,first,last,personal@straat.info,4.3151,52.0612965
Gemeente Kaag en Braassem,,kaag@straat.info,,,Postbus 1,ROELOFARENDSVEEN,nvt,Nederland,2370 AA,(071) 332 72 72,first,last,personal@straat.info,4.3151,52.0612965
Gemeente Kampen,,kampen@straat.info,,,Postbus 5009,KAMPEN,nvt,Nederland,8260 GA,(038) 339 29 99,first,last,personal@straat.info,4.3151,52.0612965
Gemeente Kapelle,,kapelle@straat.info,,,Postbus 79,KAPELLE,nvt,Nederland,4420 AC,(0113) 33 31 10,first,last,personal@straat.info,4.3151,52.0612965
Gemeente Katwijk,,katwijk@straat.info,,,Postbus 589,KATWIJK ZH,nvt,Nederland,2220 AN,(071) 406 50 00,first,last,personal@straat.info,4.3151,52.0612965
Gemeente Kerkrade,,kerkrade@straat.info,,,Postbus 600,KERKRADE,nvt,Nederland,6460 AP,14 045,first,last,personal@straat.info,4.3151,52.0612965
Gemeente Koggenland,,koggenland@straat.info,,,Postbus 21,AVENHORN,nvt,Nederland,1633 ZG,(0229) 54 84 00,first,last,personal@straat.info,4.3151,52.0612965
Gemeente Krimpen aan den IJssel,,krimpen@straat.info,,,Postbus 200,KRIMPEN AAN DEN IJSSEL,nvt,Nederland,2920 AE,14 0180,first,last,personal@straat.info,4.3151,52.0612965
Gemeente Krimpenerwaard,,krimpenerwaard@straat.info,,,Postbus 51,STOLWIJK,nvt,Nederland,2820 AB,140182,first,last,personal@straat.info,4.3151,52.0612965
Gemeente Laarbeek,,laarbeek@straat.info,,,Postbus 190,BEEK EN DONK,nvt,Nederland,5740 AD,(0492) 46 97 00,first,last,personal@straat.info,4.3151,52.0612965
Gemeente Landerd,,landerd@straat.info,,,Postbus 35,ZEELAND,nvt,Nederland,5410 AA,(0486) 45 81 11,first,last,personal@straat.info,4.3151,52.0612965
Gemeente Landgraaf,,landgraaf@straat.info,,,Postbus 31000,LANDGRAAF,nvt,Nederland,6370 AA,14 045,first,last,personal@straat.info,4.3151,52.0612965
Gemeente Landsmeer,,landsmeer@straat.info,,,Postbus 1,LANDSMEER,nvt,Nederland,1120 AA,(020) 487 71 11,first,last,personal@straat.info,4.3151,52.0612965
Gemeente Langedijk,,langedijk@straat.info,,,Postbus 15,NOORD-SCHARWOUDE,nvt,Nederland,1723 ZG,(0226) 33 44 33,first,last,personal@straat.info,4.3151,52.0612965
Gemeente Lansingerland,,lansingerland@straat.info,,,Postbus 1,BERKEL EN RODENRIJS,nvt,Nederland,2650 AA,14 010,first,last,personal@straat.info,4.3151,52.0612965
Gemeente Laren,,laren@straat.info,,,Postbus 71,EEMNES,nvt,Nederland,3755 ZH,(035) 751 34 44,first,last,personal@straat.info,4.3151,52.0612965
Gemeente Leeuwarden,,leeuwarden@straat.info,,,Postbus 21000,LEEUWARDEN,nvt,Nederland,8900 JA,14 058,first,last,personal@straat.info,4.3151,52.0612965
Gemeente Leiden,,leiden@straat.info,,,Postbus 9100,LEIDEN,nvt,Nederland,2300 PC,14071,first,last,personal@straat.info,4.3151,52.0612965
Gemeente Leiderdorp,,leiderdorp@straat.info,,,Postbus 35,LEIDERDORP,nvt,Nederland,2350 AA,(071) 545 85 00,first,last,personal@straat.info,4.3151,52.0612965
Gemeente Leidschendam-Voorburg,,leidschendam@straat.info,,,Postbus 1005,LEIDSCHENDAM,nvt,Nederland,2260 BA,14070,first,last,personal@straat.info,4.3151,52.0612965
Gemeente Lelystad,,lelystad@straat.info,,,Postbus 91,LELYSTAD,nvt,Nederland,8200 AB,14 03 20,first,last,personal@straat.info,4.3151,52.0612965
Gemeente Leudal,,leudal@straat.info,,,Postbus 3008,HEYTHUYSEN,nvt,Nederland,6093 ZG,(0475) 85 90 00,first,last,personal@straat.info,4.3151,52.0612965
Gemeente Leusden,,leusden@straat.info,,,Postbus 150,LEUSDEN,nvt,Nederland,3830 AD,14 033,first,last,personal@straat.info,4.3151,52.0612965
Gemeente Lingewaard,,lingewaard@straat.info,,,Postbus 15,BEMMEL,nvt,Nederland,6680 AA,(026) 326 01 11,first,last,personal@straat.info,4.3151,52.0612965
Gemeente Lisse,,lisse@straat.info,,,Postbus 200,LISSE,nvt,Nederland,2160 AE,14 0252,first,last,personal@straat.info,4.3151,52.0612965
Gemeente Lochem,,lochem@straat.info,,,Postbus 17,LOCHEM,nvt,Nederland,7240 AA,(0573) 28 92 22,first,last,personal@straat.info,4.3151,52.0612965
Gemeente Loon op Zand,,loon@straat.info,,,Postbus 7,KAATSHEUVEL,nvt,Nederland,5170 AA,(0416) 28 91 11,first,last,personal@straat.info,4.3151,52.0612965
Gemeente Lopik,,lopik@straat.info,,,Postbus 50,LOPIK,nvt,Nederland,3410 CB,(0348) 55 99 55,first,last,personal@straat.info,4.3151,52.0612965
Gemeente Loppersum,,loppersum@straat.info,,,Postbus 25,LOPPERSUM,nvt,Nederland,9919 ZG,(0596) 54 82 00,first,last,personal@straat.info,4.3151,52.0612965
Gemeente Losser,,losser@straat.info,,,Postbus 90,LOSSER,nvt,Nederland,7580 AB,(053) 537 74 44,first,last,personal@straat.info,4.3151,52.0612965
Gemeente Maasdriel,,maasdriel@straat.info,,,Postbus 10000,KERKDRIEL,nvt,Nederland,5330 GA,14 0418,first,last,personal@straat.info,4.3151,52.0612965
Gemeente Maasgouw,,maasgouw@straat.info,,,Postbus 7000,MAASBRACHT,nvt,Nederland,6050 AA,(0475) 85 25 00,first,last,personal@straat.info,4.3151,52.0612965
Gemeente Maassluis,,maassluis@straat.info,,,Postbus 55,MAASSLUIS,nvt,Nederland,3140 AB,14 010,first,last,personal@straat.info,4.3151,52.0612965
Gemeente Maastricht,,maastricht@straat.info,,,Postbus 1992,MAASTRICHT,nvt,Nederland,6201 BZ,14 043,first,last,personal@straat.info,4.3151,52.0612965
Gemeente Medemblik,,medemblik@straat.info,,,Postbus 45,WOGNUM,nvt,Nederland,1687 ZG,(0229) 85 60 00,first,last,personal@straat.info,4.3151,52.0612965
Gemeente Meerssen,,meerssen@straat.info,,,Postbus 90,MEERSSEN,nvt,Nederland,6230 AB,14 043,first,last,personal@straat.info,4.3151,52.0612965
Gemeente Meierijstad,,meierijstad@straat.info,,,Postbus 10001,Veghel,nvt,Nederland,5460 DA,14 0413,first,last,personal@straat.info,4.3151,52.0612965
Gemeente Meppel,,meppel@straat.info,,,Postbus 501,MEPPEL,nvt,Nederland,7940 AM,14 0522,first,last,personal@straat.info,4.3151,52.0612965
Gemeente Middelburg,,middelburg@straat.info,,,Postbus 6000,MIDDELBURG,nvt,Nederland,4330 LA,14 0118,first,last,personal@straat.info,4.3151,52.0612965
Gemeente Midden-Delfland,,middendelfland@straat.info,,,Postbus 1,SCHIPLUIDEN,nvt,Nederland,2636 ZG,(015) 380 41 11,first,last,personal@straat.info,4.3151,52.0612965
Gemeente Midden-Drenthe,,middendrenthe@straat.info,,,Postbus 24,BEILEN,nvt,Nederland,9410 AA,(0593) 53 92 22,first,last,personal@straat.info,4.3151,52.0612965
Gemeente Midden-Groningen,,middengroningen@straat.info,,,Postbus 75,HOOGEZAND,nvt,Nederland,9600 AB,(0598) 373737,first,last,personal@straat.info,4.3151,52.0612965
Gemeente Mill en St. Hubert,,mill@straat.info,,,Postbus 7,GRAVE,nvt,Nederland,5360 AA,(0485) 46 03 00,first,last,personal@straat.info,4.3151,52.0612965
Gemeente Moerdijk,,moerdijk@straat.info,,,Postbus 4,ZEVENBERGEN,nvt,Nederland,4760 AA,(0168) 37 36 00,first,last,personal@straat.info,4.3151,52.0612965
Gemeente Molenlanden,,info@molenlanden.nl,,,Postbus 5,Bleskensgraaf,nvt,Nederland,2970 AA,088 7515000,first,last,personal@straat.info,4.3151,52.0612965
Gemeente Montferland,,montferland@straat.info,,,Postbus 47,DIDAM,nvt,Nederland,6940 BA,(0316) 29 13 91,first,last,personal@straat.info,4.3151,52.0612965
Gemeente Montfoort,,montfoort@straat.info,,,Postbus 41,MONTFOORT,nvt,Nederland,3417 ZG,(0348) 47 64 00,first,last,personal@straat.info,4.3151,52.0612965
Gemeente Mook en Middelaar,,mook@straat.info,,,Postbus 200,MOOK,nvt,Nederland,6585 ZK,(024) 696 91 11,first,last,personal@straat.info,4.3151,52.0612965
Gemeente Neder-Betuwe,,neder@straat.info,,,Postbus 20,OPHEUSDEN,nvt,Nederland,4043 ZG,(0488) 44 99 00,first,last,personal@straat.info,4.3151,52.0612965
Gemeente Nederweert,,nederweert@straat.info,,,Postbus 2728,NEDERWEERT,nvt,Nederland,6030 AA,(0495) 67 71 11,first,last,personal@straat.info,4.3151,52.0612965
Gemeente Nieuwegein,,nieuwegein@straat.info,,,Postbus 1,NIEUWEGEIN,nvt,Nederland,3430 AA,14 030,first,last,personal@straat.info,4.3151,52.0612965
Gemeente Nieuwkoop,,nieuwkoop@straat.info,,,Postbus 1,TER AAR,nvt,Nederland,2460 AA,14 0172,first,last,personal@straat.info,4.3151,52.0612965
Gemeente Nijkerk,,nijkerk@straat.info,,,Postbus 1000,NIJKERK GLD,nvt,Nederland,3860 BA,14 033,first,last,personal@straat.info,4.3151,52.0612965
Gemeente Nijmegen,,nijmegen@straat.info,,,Postbus 9105,NIJMEGEN,nvt,Nederland,6500 HG,14-024,first,last,personal@straat.info,4.3151,52.0612965
Gemeente Nissewaard,,nissewaard@straat.info,,,Postbus 25,SPIJKENISSE,nvt,Nederland,3200 AA,14 0181,first,last,personal@straat.info,4.3151,52.0612965
Gemeente Noardeast-Fryslan,,info@noardeast-fryslan.nl,,,Postbus 13,Kollum,nvt,Nederland,9290 AA,0519 298888,first,last,personal@straat.info,4.3151,52.0612965
Gemeente Noord-Beveland,,noord@straat.info,,,Postbus 3,WISSENKERKE,nvt,Nederland,4490 AA,(0113) 37 73 77,first,last,personal@straat.info,4.3151,52.0612965
Gemeente Noordenveld,,noordenveld@straat.info,,,Postbus 109,RODEN,nvt,Nederland,9300 AC,14 050,first,last,personal@straat.info,4.3151,52.0612965
Gemeente Noordoostpolder,,noordoostpolder@straat.info,,,Postbus 155,EMMELOORD,nvt,Nederland,8300 AD,(0527) 63 39 11,first,last,personal@straat.info,4.3151,52.0612965
Gemeente Noordwijk,,noordwijk@straat.info,,,Postbus 298,NOORDWIJK ZH,nvt,Nederland,2200 AG,(071) 366 00 00,first,last,personal@straat.info,4.3151,52.0612965
Gemeente Nuenen,,nuenen@straat.info,,,Postbus 10000,NUENEN,nvt,Nederland,5670 GA,(040) 263 16 31,first,last,personal@straat.info,4.3151,52.0612965
Gemeente Nunspeet,,nunspeet@straat.info,,,Postbus 79,NUNSPEET,nvt,Nederland,8070 AB,(0341) 25 99 11,first,last,personal@straat.info,4.3151,52.0612965
Gemeente Oegstgeest,,oegstgeest@straat.info,,,Postbus 1270,OEGSTGEEST,nvt,Nederland,2340 BG,(071) 519 17 93,first,last,personal@straat.info,4.3151,52.0612965
Gemeente Oirschot,,oirschot@straat.info,,,Postbus 11,OIRSCHOT,nvt,Nederland,5688 ZG,(0499) 58 33 33,first,last,personal@straat.info,4.3151,52.0612965
Gemeente Oisterwijk,,oisterwijk@straat.info,,,Postbus 10101,OISTERWIJK,nvt,Nederland,5060 GA,(013) 529 13 11,first,last,personal@straat.info,4.3151,52.0612965
Gemeente Oldambt,,oldambt@straat.info,,,Postbus 175,WINSCHOTEN,nvt,Nederland,9670 AD,(0597) 48 20 00,first,last,personal@straat.info,4.3151,52.0612965
Gemeente Oldebroek,,oldebroek@straat.info,,,Postbus 2,OLDEBROEK,nvt,Nederland,8096 ZG,14 0525,first,last,personal@straat.info,4.3151,52.0612965
Gemeente Oldenzaal,,oldenzaal@straat.info,,,Postbus 354,OLDENZAAL,nvt,Nederland,7570 AJ,(0541) 58 81 11,first,last,personal@straat.info,4.3151,52.0612965
Gemeente Olst-Wijhe,,olst@straat.info,,,Postbus 23,WIJHE,nvt,Nederland,8130 AA,14 0570,first,last,personal@straat.info,4.3151,52.0612965
Gemeente Ommen,,ommen@straat.info,,,Postbus 100,OMMEN,nvt,Nederland,7730 AC,(0529) 45 91 00,first,last,personal@straat.info,4.3151,52.0612965
Gemeente Oost Gelre,,oost@straat.info,,,Postbus 17,LICHTENVOORDE,nvt,Nederland,7130 AA,(0544) 39 35 35,first,last,personal@straat.info,4.3151,52.0612965
Gemeente Oosterhout,,oosterhout@straat.info,,,Postbus 10150,OOSTERHOUT NB,nvt,Nederland,4900 GB,14 0162,first,last,personal@straat.info,4.3151,52.0612965
Gemeente Ooststellingwerf,,ooststellingwerf@straat.info,,,Postbus 38,OOSTERWOLDE FR,nvt,Nederland,8430 AA,(0516) 56 62 22,first,last,personal@straat.info,4.3151,52.0612965
Gemeente Oostzaan,,oostzaan@straat.info,,,Postbus 20,WORMER,nvt,Nederland,1530 AA,(075) 651 21 00,first,last,personal@straat.info,4.3151,52.0612965
Gemeente Opmeer,,opmeer@straat.info,,,Postbus 199,SPANBROEK,nvt,Nederland,1715 ZK,(0226) 36 33 33,first,last,personal@straat.info,4.3151,52.0612965
Gemeente Opsterland,,opsterland@straat.info,,,Postbus 10000,BEETSTERZWAAG,nvt,Nederland,9244 ZP,(0512) 38 62 22,first,last,personal@straat.info,4.3151,52.0612965
Gemeente Oss,,oss@straat.info,,,Postbus 5,OSS,nvt,Nederland,5340 BA,14 0412,first,last,personal@straat.info,4.3151,52.0612965
Gemeente Oude IJsselstreek,,oude@straat.info,,,Postbus 42,GENDRINGEN,nvt,Nederland,7080 AA,(0315) 29 22 92,first,last,personal@straat.info,4.3151,52.0612965
Gemeente Ouder-Amstel,,ouder@straat.info,,,Postbus 35,OUDERKERK AAN DE AMSTEL,nvt,Nederland,1190 AA,(020) 496 21 21,first,last,personal@straat.info,4.3151,52.0612965
Gemeente Oudewater,,oudewater@straat.info,,,Postbus 100,OUDEWATER,nvt,Nederland,3420 DC,(0348) 56 69 99,first,last,personal@straat.info,4.3151,52.0612965
Gemeente Overbetuwe,,overbetuwe@straat.info,,,Postbus 11,ELST GLD,nvt,Nederland,6660 AA,(0481) 36 23 00,first,last,personal@straat.info,4.3151,52.0612965
Gemeente Papendrecht,,papendrecht@straat.info,,,Postbus 11,PAPENDRECHT,nvt,Nederland,3350 AA,14078,first,last,personal@straat.info,4.3151,52.0612965
Gemeente Peel en Maas,,peel@straat.info,,,Postbus 7088,PANNINGEN,nvt,Nederland,5980 AB,(077) 306 66 66,first,last,personal@straat.info,4.3151,52.0612965
Gemeente Pekela,,pekela@straat.info,,,Postbus 20000,OUDE PEKELA,nvt,Nederland,9665 ZM,(0597) 61 75 55,first,last,personal@straat.info,4.3151,52.0612965
Gemeente Pijnacker-Nootdorp,,pijnacker@straat.info,,,Postbus 1,PIJNACKER,nvt,Nederland,2640 AA,14 015,first,last,personal@straat.info,4.3151,52.0612965
Gemeente Purmerend,,purmerend@straat.info,,,Postbus 15,PURMEREND,nvt,Nederland,1440 AA,(0299) 45 24 52,first,last,personal@straat.info,4.3151,52.0612965
Gemeente Putten,,putten@straat.info,,,Postbus 400,PUTTEN,nvt,Nederland,3880 AK,(0341) 35 96 11,first,last,personal@straat.info,4.3151,52.0612965
Gemeente Raalte,,raalte@straat.info,,,Postbus 140,RAALTE,nvt,Nederland,8100 AC,(0572) 34 77 99,first,last,personal@straat.info,4.3151,52.0612965
Gemeente Reimerswaal,,reimerswaal@straat.info,,,Postbus 70,KRUININGEN,nvt,Nederland,4416 ZH,140113,first,last,personal@straat.info,4.3151,52.0612965
Gemeente Renkum,,renkum@straat.info,,,Postbus 9100,OOSTERBEEK,nvt,Nederland,6860 HA,(026) 334 81 11,first,last,personal@straat.info,4.3151,52.0612965
Gemeente Renswoude,,renswoude@straat.info,,,Postbus 8,RENSWOUDE,nvt,Nederland,3927 ZL,(0318) 57 81 50,first,last,personal@straat.info,4.3151,52.0612965
Gemeente Reusel-De Mierden,,reusel@straat.info,,,Postbus 11,REUSEL,nvt,Nederland,5540 AA,(0497) 65 06 50,first,last,personal@straat.info,4.3151,52.0612965
Gemeente Rheden,,rheden@straat.info,,,Postbus 9110,DE STEEG,nvt,Nederland,6994 ZJ,(026) 497 69 11,first,last,personal@straat.info,4.3151,52.0612965
Gemeente Rhenen,,rhenen@straat.info,,,Postbus 201,RHENEN,nvt,Nederland,3910 AE,(0317) 68 16 81,first,last,personal@straat.info,4.3151,52.0612965
Gemeente Ridderkerk,,ridderkerk@straat.info,,,Postbus 271,RIDDERKERK,nvt,Nederland,2980 AG,(0180) 45 12 34,first,last,personal@straat.info,4.3151,52.0612965
Gemeente Rijssen-Holten,,rijssen@straat.info,,,Postbus 244,RIJSSEN,nvt,Nederland,7460 AE,(0548) 85 48 54,first,last,personal@straat.info,4.3151,52.0612965
Gemeente Rijswijk,,rijswijk@straat.info,,,Postbus 5305,RIJSWIJK ZH,nvt,Nederland,2280 HH,14070,first,last,personal@straat.info,4.3151,52.0612965
Gemeente Roerdalen,,roerdalen@straat.info,,,Postbus 6099,SINT ODILIENBERG,nvt,Nederland,6077 ZH,(0475) 53 88 88,first,last,personal@straat.info,4.3151,52.0612965
Gemeente Roermond,,roermond@straat.info,,,Postbus 900,ROERMOND,nvt,Nederland,6040 AX,14 0475,first,last,personal@straat.info,4.3151,52.0612965
Gemeente Roosendaal,,roosendaal@straat.info,,,Postbus 5000,ROOSENDAAL,nvt,Nederland,4700 KA,(0165) 57 91 11,first,last,personal@straat.info,4.3151,52.0612965
Gemeente Rotterdam,,rotterdam@straat.info,,,Postbus 70012,ROTTERDAM,nvt,Nederland,3000 KP,14 010,first,last,personal@straat.info,4.3151,52.0612965
Gemeente Rozendaal,,rozendaal@straat.info,,,Postbus 9106,VELP GLD,nvt,Nederland,6880 HH,(026) 384 36 66,first,last,personal@straat.info,4.3151,52.0612965
Gemeente Rucphen,,rucphen@straat.info,,,Postbus 9,RUCPHEN,nvt,Nederland,4715 ZG,(0165) 34 95 00,first,last,personal@straat.info,4.3151,52.0612965
Gemeente Schagen,,schagen@straat.info,,,Postbus 8,SCHAGEN,nvt,Nederland,1740 AA,(0224) 21 04 00,first,last,personal@straat.info,4.3151,52.0612965
Gemeente Scherpenzeel,,scherpenzeel@straat.info,,,Postbus 100,SCHERPENZEEL GLD,nvt,Nederland,3925 ZJ,(033) 277 23 24,first,last,personal@straat.info,4.3151,52.0612965
Gemeente Schiedam,,schiedam@straat.info,,,Postbus 1501,SCHIEDAM,nvt,Nederland,3100 EA,14 010,first,last,personal@straat.info,4.3151,52.0612965
Gemeente Schiermonnikoog,,schiermonnikoog@straat.info,,,Postbus 20,SCHIERMONNIKOOG,nvt,Nederland,9166 ZP,(0519) 53 50 50,first,last,personal@straat.info,4.3151,52.0612965
Gemeente Schouwen-Duiveland,,schouwen@straat.info,,,Postbus 5555,ZIERIKZEE,nvt,Nederland,4300 JA,(0111) 45 20 00,first,last,personal@straat.info,4.3151,52.0612965
Gemeente 's-Hertogenbosch,,denbosch@straat.info,,,Postbus 12345,'S-HERTOGENBOSCH,nvt,Nederland,5200 GZ,(073) 615 51 55,first,last,personal@straat.info,4.3151,52.0612965
Gemeente Simpelveld,,simpelveld@straat.info,,,Postbus 21000,SIMPELVELD,nvt,Nederland,6369 ZG,14 045,first,last,personal@straat.info,4.3151,52.0612965
Gemeente Sint Anthonis,,sintanthonis@straat.info,,,Postbus 40,SINT ANTHONIS,nvt,Nederland,5845 ZG,(0485) 38 88 88,first,last,personal@straat.info,4.3151,52.0612965
Gemeente Sint-Michielsgestel,,sintmichielsgestel@straat.info,,,Postbus 10000,SINT-MICHIELSGESTEL,nvt,Nederland,5270 GA,(073) 553 11 11,first,last,personal@straat.info,4.3151,52.0612965
Gemeente Sittard-Geleen,,sittard@straat.info,,,Postbus 18,SITTARD,nvt,Nederland,6130 AA,14 046,first,last,personal@straat.info,4.3151,52.0612965
Gemeente Sliedrecht,,sliedrecht@straat.info,,,Postbus 16,SLIEDRECHT,nvt,Nederland,3360 AA,(0184) 49 59 00,first,last,personal@straat.info,4.3151,52.0612965
Gemeente Sluis,,sluis@straat.info,,,Postbus 27,OOSTBURG,nvt,Nederland,4500 AA,(0117) 45 70 00,first,last,personal@straat.info,4.3151,52.0612965
Gemeente Smallingerland,,smallingerland@straat.info,,,Postbus 10000,DRACHTEN,nvt,Nederland,9200 HA,(0512) 58 12 34,first,last,personal@straat.info,4.3151,52.0612965
Gemeente Soest,,soest@straat.info,,,Postbus 2000,SOEST,nvt,Nederland,3760 CA,(035) 609 34 11,first,last,personal@straat.info,4.3151,52.0612965
Gemeente Someren,,someren@straat.info,,,Postbus 290,SOMEREN,nvt,Nederland,5710 AG,(0493) 49 48 88,first,last,personal@straat.info,4.3151,52.0612965
Gemeente Son en Breugel,,son@straat.info,,,Postbus 8,SON EN BREUGEL,nvt,Nederland,5690 AA,(0499) 49 14 91,first,last,personal@straat.info,4.3151,52.0612965
Gemeente Stadskanaal,,stadskanaal@straat.info,,,Postbus 140,STADSKANAAL,nvt,Nederland,9500 AC,(0599) 63 16 31,first,last,personal@straat.info,4.3151,52.0612965
Gemeente Staphorst,,staphorst@straat.info,,,Postbus 2,STAPHORST,nvt,Nederland,7950 AA,(0522) 46 74 00,first,last,personal@straat.info,4.3151,52.0612965
Gemeente Stede Broec,,stede@straat.info,,,Postbus 20,BOVENKARSPEL,nvt,Nederland,1610 AA,(0228) 51 01 11,first,last,personal@straat.info,4.3151,52.0612965
Gemeente Steenbergen,,steenbergen@straat.info,,,Postbus 6,STEENBERGEN NB,nvt,Nederland,4650 AA,140167,first,last,personal@straat.info,4.3151,52.0612965
Gemeente Steenwijkerland,,steenwijkerland@straat.info,,,Postbus 162,STEENWIJK,nvt,Nederland,8330 AD,14 0521,first,last,personal@straat.info,4.3151,52.0612965
Gemeente Stein,,stein@straat.info,,,Postbus 15,STEIN LB,nvt,Nederland,6170 AA,(046) 435 93 93,first,last,personal@straat.info,4.3151,52.0612965
Gemeente Stichtse Vecht,,stichtse@straat.info,,,Postbus 1212,MAARSSEN,nvt,Nederland,3600 BE,(0346) 25 40 00,first,last,personal@straat.info,4.3151,52.0612965
Gemeente Súdwest Fryslân,,súdwest@straat.info,,,Postbus 10000,SNEEK,nvt,Nederland,8600 HA,(0515) 48 90 00,first,last,personal@straat.info,4.3151,52.0612965
Gemeente Terneuzen,,terneuzen@straat.info,,,Postbus 35,TERNEUZEN,nvt,Nederland,4530 AA,140115,first,last,personal@straat.info,4.3151,52.0612965
Gemeente Terschelling,,terschelling@straat.info,,,Postbus 14,WEST-TERSCHELLING,nvt,Nederland,8880 AA,(0562) 44 62 44,first,last,personal@straat.info,4.3151,52.0612965
Gemeente Texel,,texel@straat.info,,,Postbus 200,DEN BURG,nvt,Nederland,1790 AE,140222,first,last,personal@straat.info,4.3151,52.0612965
Gemeente Teylingen,,teylingen@straat.info,,,Postbus 149,VOORHOUT,nvt,Nederland,2215 ZJ,(0252) 78 33 00,first,last,personal@straat.info,4.3151,52.0612965
Gemeente Tholen,,tholen@straat.info,,,Postbus 51,THOLEN,nvt,Nederland,4690 AB,14 0166,first,last,personal@straat.info,4.3151,52.0612965
Gemeente Tiel,,tiel@straat.info,,,Postbus 6325,TIEL,nvt,Nederland,4000 HH,(0344) 63 71 11,first,last,personal@straat.info,4.3151,52.0612965
Gemeente Tilburg,,tilburg@straat.info,,,Postbus 90155,TILBURG,nvt,Nederland,5000 LH,14 013,first,last,personal@straat.info,4.3151,52.0612965
Gemeente Tubbergen,,tubbergen@straat.info,,,Postbus 30,TUBBERGEN,nvt,Nederland,7650 AA,(0546) 62 80 00,first,last,personal@straat.info,4.3151,52.0612965
Gemeente Twenterand,,twenterand@straat.info,,,Postbus 67,VRIEZENVEEN,nvt,Nederland,7670 AB,(0546) 84 08 40,first,last,personal@straat.info,4.3151,52.0612965
Gemeente Tynaarlo,,tynaarlo@straat.info,,,Postbus 5,VRIES,nvt,Nederland,9480 AA,(0592) 26 66 62,first,last,personal@straat.info,4.3151,52.0612965
Gemeente Tytsjerksteradiel,,tytsjerksteradiel@straat.info,,,Postbus 3,BURGUM,nvt,Nederland,9250 AA,(0511) 46 08 60,first,last,personal@straat.info,4.3151,52.0612965
Gemeente Uden,,uden@straat.info,,,Postbus 83,UDEN,nvt,Nederland,5400 AB,140413,first,last,personal@straat.info,4.3151,52.0612965
Gemeente Uitgeest,,uitgeest@straat.info,,,Postbus 7,UITGEEST,nvt,Nederland,1910 AA,14 0251,first,last,personal@straat.info,4.3151,52.0612965
Gemeente Uithoorn,,uithoorn@straat.info,,,Postbus 8,UITHOORN,nvt,Nederland,1420 AA,(0297) 51 31 11,first,last,personal@straat.info,4.3151,52.0612965
Gemeente Urk,,urk@straat.info,,,Postbus 77,URK,nvt,Nederland,8320 AB,(0527) 68 98 68,first,last,personal@straat.info,4.3151,52.0612965
Gemeente Utrecht,,utrecht@straat.info,,,Postbus 16200,UTRECHT,nvt,Nederland,3500 CE,(030) 286 00 00,first,last,personal@straat.info,4.3151,52.0612965
Gemeente Utrechtse Heuvelrug,,utrechtse@straat.info,,,Postbus 200,DOORN,nvt,Nederland,3940 AE,(0343) 56 56 00,first,last,personal@straat.info,4.3151,52.0612965
Gemeente Vaals,,vaals@straat.info,,,Postbus 450,VAALS,nvt,Nederland,6290 AL,(043) 306 85 68,first,last,personal@straat.info,4.3151,52.0612965
Gemeente Valkenburg aan de Geul,,valkenburg@straat.info,,,Postbus 998,VALKENBURG LB,nvt,Nederland,6300 AZ,14 043,first,last,personal@straat.info,4.3151,52.0612965
Gemeente Valkenswaard,,valkenswaard@straat.info,,,Postbus 10100,VALKENSWAARD,nvt,Nederland,5550 GA,(040) 208 34 44,first,last,personal@straat.info,4.3151,52.0612965
Gemeente Veendam,,veendam@straat.info,,,Postbus 20004,VEENDAM,nvt,Nederland,9640 PA,(0598) 65 22 22,first,last,personal@straat.info,4.3151,52.0612965
Gemeente Veenendaal,,veenendaal@straat.info,,,Postbus 1100,VEENENDAAL,nvt,Nederland,3900 BC,(0318) 53 85 38,first,last,personal@straat.info,4.3151,52.0612965
Gemeente Veere,,veere@straat.info,,,Postbus 1000,DOMBURG,nvt,Nederland,4357 ZV,(0118) 55 54 44,first,last,personal@straat.info,4.3151,52.0612965
Gemeente Veldhoven,,veldhoven@straat.info,,,Postbus 10101,VELDHOVEN,nvt,Nederland,5500 GA,(040) 258 44 11,first,last,personal@straat.info,4.3151,52.0612965
Gemeente Velsen,,velsen@straat.info,,,Postbus 465,IJMUIDEN,nvt,Nederland,1970 AL,(0255) 56 72 00,first,last,personal@straat.info,4.3151,52.0612965
Gemeente Venlo,,venlo@straat.info,,,Postbus 3434,VENLO,nvt,Nederland,5902 RK,14 077,first,last,personal@straat.info,4.3151,52.0612965
Gemeente Venray,,venray@straat.info,,,Postbus 500,VENRAY,nvt,Nederland,5800 AM,(0478) 52 33 33,first,last,personal@straat.info,4.3151,52.0612965
Gemeente Vijfheerenlanden,,info@vijfheerenlanden.nl,,,Postbus 11,Leerdam,nvt,Nederland,4140 AA,088 5997000,first,last,personal@straat.info,4.3151,52.0612965
Gemeente Vlieland,,vlieland@straat.info,,,Postbus 10,VLIELAND,nvt,Nederland,8899 ZN,(0562) 45 27 00,first,last,personal@straat.info,4.3151,52.0612965
Gemeente Vlissingen,,vlissingen@straat.info,,,Postbus 3000,VLISSINGEN,nvt,Nederland,4380 GV,(0118) 48 70 00,first,last,personal@straat.info,4.3151,52.0612965
Gemeente Voerendaal,,voerendaal@straat.info,,,Postbus 23000,VOERENDAAL,nvt,Nederland,6367 ZG,(045) 575 33 99,first,last,personal@straat.info,4.3151,52.0612965
Gemeente Voorschoten,,voorschoten@straat.info,,,Postbus 393,VOORSCHOTEN,nvt,Nederland,2250 AJ,(071) 560 06 00,first,last,personal@straat.info,4.3151,52.0612965
Gemeente Voorst,,voorst@straat.info,,,Postbus 9000,TWELLO,nvt,Nederland,7390 HA,(0571) 27 99 11,first,last,personal@straat.info,4.3151,52.0612965
Gemeente Vught,,vught@straat.info,,,Postbus 10100,VUGHT,nvt,Nederland,5260 GA,(073) 658 06 80,first,last,personal@straat.info,4.3151,52.0612965
Gemeente Waadhoeke,,franeker@straat.info ,,,Postbus 58,FRANEKER,nvt,Nederland,8800 AB,(0517) 380380,first,last,personal@straat.info,4.3151,52.0612965
Gemeente Waalre,,waalre@straat.info,,,Postbus 10000,WAALRE,nvt,Nederland,5580 GA,(040) 228 25 00,first,last,personal@straat.info,4.3151,52.0612965
Gemeente Waalwijk,,waalwijk@straat.info,,,Postbus 10150,WAALWIJK,nvt,Nederland,5140 GB,(0416) 68 34 56,first,last,personal@straat.info,4.3151,52.0612965
Gemeente Waddinxveen,,waddinxveen@straat.info,,,Postbus 400,WADDINXVEEN,nvt,Nederland,2740 AK,14 0182,first,last,personal@straat.info,4.3151,52.0612965
Gemeente Wageningen,,wageningen@straat.info,,,Postbus 1,WAGENINGEN,nvt,Nederland,6700 AA,(0317) 49 29 11,first,last,personal@straat.info,4.3151,52.0612965
Gemeente Wassenaar,,wassenaar@straat.info,,,Postbus 499,WASSENAAR,nvt,Nederland,2240 AL,(070) 512 22 22,first,last,personal@straat.info,4.3151,52.0612965
Gemeente Waterland,,waterland@straat.info,,,Postbus 1000,MONNICKENDAM,nvt,Nederland,1140 BA,(0299) 65 85 85,first,last,personal@straat.info,4.3151,52.0612965
Gemeente Weert,,weert@straat.info,,,Postbus 950,WEERT,nvt,Nederland,6000 AZ,(0495) 57 50 00,first,last,personal@straat.info,4.3151,52.0612965
Gemeente Weesp,,weesp@straat.info,,,Postbus 5099,WEESP,nvt,Nederland,1380 GB,(0294) 49 13 91,first,last,personal@straat.info,4.3151,52.0612965
Gemeente West Betuwe,,gemeente@westbetuwe.nl,,,Postbus 112,Geldermalsen,nvt,Nederland,4190 CC,0345 728802,first,last,personal@straat.info,4.3151,52.0612965
Gemeente West Maas en Waal,,west@straat.info,,,Postbus 1,BENEDEN-LEEUWEN,nvt,Nederland,6658 ZG,14 0487,first,last,personal@straat.info,4.3151,52.0612965
gemeente Westerkwartier,,info@westerkwartier.nl,,,Postbus 100,Leek,nvt,Nederland,9350 AC,14 0594,first,last,personal@straat.info,4.3151,52.0612965
Gemeente Westerveld,,westerveld@straat.info,,,Postbus 50,HAVELTE,nvt,Nederland,7970 AB,(0521) 34 93 49,first,last,personal@straat.info,4.3151,52.0612965
Gemeente Westervoort,,westervoort@straat.info,,,Postbus 40,WESTERVOORT,nvt,Nederland,6930 AA,(026) 317 99 11,first,last,personal@straat.info,4.3151,52.0612965
Gemeente Westerwolde,,westerwolde@straat.info,,,Postbus 14,SELLINGEN,nvt,Nederland,9550 AA,(0599) 32 02 20,first,last,personal@straat.info,4.3151,52.0612965
Gemeente Westland,,westland@straat.info,,,Postbus 150,NAALDWIJK,nvt,Nederland,2670 AD,14 0174,first,last,personal@straat.info,4.3151,52.0612965
Gemeente Weststellingwerf,,weststellingwerf@straat.info,,,Postbus 60,WOLVEGA,nvt,Nederland,8470 AB,14 0561,first,last,personal@straat.info,4.3151,52.0612965
Gemeente Westvoorne,,westvoorne@straat.info,,,Postbus 550,ROCKANJE,nvt,Nederland,3235 ZH,(0181) 40 80 00,first,last,personal@straat.info,4.3151,52.0612965
Gemeente Wierden,,wierden@straat.info,,,Postbus 43,WIERDEN,nvt,Nederland,7640 AA,(0546) 58 08 00,first,last,personal@straat.info,4.3151,52.0612965
Gemeente Wijchen,,wijchen@straat.info,,,Postbus 9000,WIJCHEN,nvt,Nederland,6600 HA,14 024,first,last,personal@straat.info,4.3151,52.0612965
Gemeente Wijdemeren,,wijdemeren@straat.info,,,Postbus 190,LOOSDRECHT,nvt,Nederland,1230 AD,(035) 655 95 95,first,last,personal@straat.info,4.3151,52.0612965
Gemeente Wijk bij Duurstede,,wijk@straat.info,,,Postbus 83,WIJK BIJ DUURSTEDE,nvt,Nederland,3960 BB,(0343) 59 55 95,first,last,personal@straat.info,4.3151,52.0612965
Gemeente Winterswijk,,winterswijk@straat.info,,,Postbus 101,WINTERSWIJK,nvt,Nederland,7100 AC,(0543) 54 35 43,first,last,personal@straat.info,4.3151,52.0612965
Gemeente Woensdrecht,,woensdrecht@straat.info,,,Postbus 24,HOOGERHEIDE,nvt,Nederland,4630 AA,14 0164,first,last,personal@straat.info,4.3151,52.0612965
Gemeente Woerden,,woerden@straat.info,,,Blekerijlaan 14,WOERDEN,nvt,Nederland,3447 GR,14 0348,first,last,personal@straat.info,4.3151,52.0612965
Gemeente Wormerland,,wormerland@straat.info,,,Postbus 20,WORMER,nvt,Nederland,1530 AA,(075) 642 90 00,first,last,personal@straat.info,4.3151,52.0612965
Gemeente Woudenberg,,woudenberg@straat.info,,,Postbus 16,WOUDENBERG,nvt,Nederland,3930 EA,(033) 286 91 00,first,last,personal@straat.info,4.3151,52.0612965
Gemeente Zaanstad,,zaanstad@straat.info,,,Postbus 2000,ZAANDAM,nvt,Nederland,1500 GA,14 075,first,last,personal@straat.info,4.3151,52.0612965
Gemeente Zaltbommel,,zaltbommel@straat.info,,,Postbus 10002,ZALTBOMMEL,nvt,Nederland,5300 DA,14 0418,first,last,personal@straat.info,4.3151,52.0612965
Gemeente Zandvoort,,zandvoort@straat.info,,,Postbus 2,ZANDVOORT,nvt,Nederland,2040 AA,(023) 574 01 00,first,last,personal@straat.info,4.3151,52.0612965
Gemeente Zeewolde,,zeewolde@straat.info,,,Postbus 1,ZEEWOLDE,nvt,Nederland,3890 AA,(036) 522 95 22,first,last,personal@straat.info,4.3151,52.0612965
Gemeente Zeist,,zeist@straat.info,,,Postbus 513,ZEIST,nvt,Nederland,3700 AM,14 030,first,last,personal@straat.info,4.3151,52.0612965
Gemeente Zevenaar,,zevenaar@straat.info,,,Postbus 10,ZEVENAAR,nvt,Nederland,6900 AA,(0316) 59 51 11,first,last,personal@straat.info,4.3151,52.0612965
Gemeente Zoetermeer,,zoetermeer@straat.info,,,Postbus 15,ZOETERMEER,nvt,Nederland,2700 AA,14 079,first,last,personal@straat.info,4.3151,52.0612965
Gemeente Zoeterwoude,,zoeterwoude@straat.info,,,Postbus 34,ZOETERWOUDE,nvt,Nederland,2380 AA,(071) 580 63 00,first,last,personal@straat.info,4.3151,52.0612965
Gemeente Zuidplas,,zuidplas@straat.info,,,Postbus 100,NIEUWERKERK AD IJSSEL,nvt,Nederland,2910 AC,(0180) 33 03 00,first,last,personal@straat.info,4.3151,52.0612965
Gemeente Zundert,,zundert@straat.info,,,Postbus 10001,ZUNDERT,nvt,Nederland,4880 GA,(076) 599 56 00,first,last,personal@straat.info,4.3151,52.0612965
Gemeente Zutphen,,zutphen@straat.info,,,Postbus 41,ZUTPHEN,nvt,Nederland,7200 AA,14 0575,first,last,personal@straat.info,4.3151,52.0612965
Gemeente Zwartewaterland,,zwartewaterland@straat.info,,,Postbus 23,HASSELT,nvt,Nederland,8060 AA,(038) 385 30 00,first,last,personal@straat.info,4.3151,52.0612965
Gemeente Zwijndrecht,,zwijndrecht@straat.info,,,Postbus 15,ZWIJNDRECHT,nvt,Nederland,3330 AA,14 078,first,last,personal@straat.info,4.3151,52.0612965
Gemeente Zwolle,,zwolle@straat.info,,,Postbus 10007,ZWOLLE,nvt,Nederland,8000 GA,14 038,first,last,personal@straat.info,4.3151,52.0612965
,,,,,,,,,,,,,,,
,,,,,,,,,,,,,,,
,,,,,,,,,,,,,,,
,,,,,,,,,,,,,,,
 ,,,,,,,,,,,,,,,